{
  "type": "FeatureCollection",
  "name": "turkmenistan-ahal",
  "properties": {
    "source": "geoBoundaries",
    "boundary_id": "TKM-ADM1-27578892",
    "represented_year": 2007,
    "license": "Public Domain",
    "srid": 4326
  },
  "features": [
    {
      "type": "Feature",
      "properties": {
        "slug": "turkmenistan-ahal",
        "name_tm": "Ahal",
        "name_en": "Ahal",
        "iso_3166_2": "TM-A",
        "admin_level": 1,
        "source_shape_id": "27578892B63269087941453"
      },
      "geometry": {
        "type": "Polygon",
        "coordinates": [
          [
            [
              57.124025791000065,
              38.300160825000034
            ],
            [
              57.148083023000027,
              38.300031555000032
            ],
            [
              57.179436415000055,
              38.309791491000055
            ],
            [
              57.208700246000035,
              38.321271814000056
            ],
            [
              57.233783531000029,
              38.314711852000073
            ],
            [
              57.260957088000055,
              38.290106709000042
            ],
            [
              57.275589004000039,
              38.258928215000026
            ],
            [
              57.334116667000046,
              38.17681559600004
            ],
            [
              57.346658309000077,
              38.130792064000048
            ],
            [
              57.345351888000039,
              38.019208522000042
            ],
            [
              57.374746362000053,
              38.003768834000027
            ],
            [
              57.404140835000078,
              37.980603205000079
            ],
            [
              57.440067414000055,
              37.967730251000035
            ],
            [
              57.472727940000027,
              37.962580437000042
            ],
            [
              57.534782940000071,
              37.962580437000042
            ],
            [
              57.734012150000069,
              37.941977570000063
            ],
            [
              57.799333202000071,
              37.918792438000025
            ],
            [
              58.037755043000061,
              37.838876588000062
            ],
            [
              58.122672411000053,
              37.81565897400003
            ],
            [
              58.171663201000058,
              37.795014963000028
            ],
            [
              58.187993464000044,
              37.774365182000054
            ],
            [
              58.201057674000083,
              37.704629586000067
            ],
            [
              58.25658056900005,
              37.683954573000051
            ],
            [
              58.341497937000042,
              37.676199957000051
            ],
            [
              58.387222674000043,
              37.663273795000066
            ],
            [
              58.436213463000058,
              37.658102700000029
            ],
            [
              58.478672147000054,
              37.660688293000078
            ],
            [
              58.534195041000032,
              37.668444530000045
            ],
            [
              58.583185831000037,
              37.683954573000051
            ],
            [
              58.632176620000052,
              37.683954573000051
            ],
            [
              58.681167409000068,
              37.673614904000033
            ],
            [
              58.720360041000049,
              37.671029762000046
            ],
            [
              58.769350830000064,
              37.686539264000032
            ],
            [
              58.802011356000037,
              37.694292800000028
            ],
            [
              58.916323198000043,
              37.694292800000028
            ],
            [
              58.955515829000035,
              37.686539264000032
            ],
            [
              59.03063504000005,
              37.658102700000029
            ],
            [
              59.073093724000046,
              37.634828316000039
            ],
            [
              59.109020302000033,
              37.606371944000045
            ],
            [
              59.252726618000054,
              37.533888405000027
            ],
            [
              59.275588986000059,
              37.54165787200003
            ],
            [
              59.308249512000032,
              37.559783480000078
            ],
            [
              59.340910038000061,
              37.554605185000071
            ],
            [
              59.350708196000028,
              37.505393433000052
            ],
            [
              59.350708196000028,
              37.445777882000073
            ],
            [
              59.360506354000051,
              37.367947025000035
            ],
            [
              59.383368722000057,
              37.326404182000033
            ],
            [
              59.438891617000081,
              37.279641016000028
            ],
            [
              59.484616354000082,
              37.248449420000043
            ],
            [
              59.569533722000074,
              37.196434725000074
            ],
            [
              59.700175826000077,
              37.165208692000078
            ],
            [
              59.801423458000045,
              37.120949720000056
            ],
            [
              59.866744510000046,
              37.10271791200006
            ],
            [
              59.974524246000044,
              37.055815966000068
            ],
            [
              60.065973720000045,
              37.011493048000034
            ],
            [
              60.11496450900006,
              36.914936133000026
            ],
            [
              60.183551614000066,
              36.820871385000032
            ],
            [
              60.245606614000053,
              36.742395664000071
            ],
            [
              60.340322140000069,
              36.640257154000039
            ],
            [
              61.084982137000054,
              36.642877784000063
            ],
            [
              61.163367400000027,
              36.621910243000059
            ],
            [
              61.173165558000051,
              36.574712418000047
            ],
            [
              61.173165558000051,
              36.47760403400008
            ],
            [
              61.169768863000058,
              36.42779532600008
            ],
            [
              61.173949410000034,
              36.279651846000036
            ],
            [
              61.199032694000039,
              36.234142238000061
            ],
            [
              61.20112296800005,
              36.023104421000028
            ],
            [
              61.207393789000037,
              35.891129571000079
            ],
            [
              61.238747894000028,
              35.855560218000051
            ],
            [
              61.259650631000056,
              35.804719164000062
            ],
            [
              61.259650631000056,
              35.745363446000056
            ],
            [
              61.240838168000039,
              35.694451862000051
            ],
            [
              61.217845158000046,
              35.653699179000057
            ],
            [
              61.215754884000035,
              35.623121013000059
            ],
            [
              61.240838168000039,
              35.585731814000042
            ],
            [
              61.265921452000043,
              35.565330343000028
            ],
            [
              61.280553368000028,
              35.558528698000032
            ],
            [
              61.309817199000065,
              35.575531728000044
            ],
            [
              61.330719936000037,
              35.59253115000007
            ],
            [
              61.362074041000028,
              35.594230893000031
            ],
            [
              61.385067052000068,
              35.580631933000063
            ],
            [
              61.412240609000037,
              35.544923676000053
            ],
            [
              61.437323894000031,
              35.502393106000056
            ],
            [
              61.504212651000046,
              35.44281245500008
            ],
            [
              61.569011135000039,
              35.413857356000051
            ],
            [
              61.587823598000057,
              35.395116158000064
            ],
            [
              61.588978268681068,
              35.396763243107856
            ],
            [
              61.596184693000055,
              35.407042879000073
            ],
            [
              61.600365240000031,
              35.427484582000034
            ],
            [
              61.602455514000042,
              35.507497965000027
            ],
            [
              61.608726335000028,
              35.534718395000027
            ],
            [
              61.631719345000079,
              35.553427085000067
            ],
            [
              61.646351261000063,
              35.561929593000059
            ],
            [
              61.648441535000075,
              35.582331930000066
            ],
            [
              61.642170714000031,
              35.59763027200006
            ],
            [
              61.605917530000056,
              35.646778973000039
            ],
            [
              61.534472629000049,
              35.655072532000077
            ],
            [
              61.488543764000042,
              35.663365231000057
            ],
            [
              61.452821313000072,
              35.684093208000036
            ],
            [
              61.411995656000045,
              35.704815801000052
            ],
            [
              61.401789241000074,
              35.729675805000056
            ],
            [
              61.468130935000033,
              35.742102898000041
            ],
            [
              61.590607908000038,
              35.750386549000041
            ],
            [
              61.62335825100007,
              35.770807036000065
            ],
            [
              61.625448524000035,
              35.799633267000047
            ],
            [
              61.654712356000061,
              35.816584990000024
            ],
            [
              61.675615093000033,
              35.823364666000032
            ],
            [
              61.686066461000053,
              35.836922281000057
            ],
            [
              61.677705366000055,
              35.880968528000039
            ],
            [
              61.602455514000042,
              35.902982473000066
            ],
            [
              61.579462504000048,
              35.91821931000004
            ],
            [
              61.552288946000033,
              35.968987570000024
            ],
            [
              61.541837577000081,
              35.994359467000038
            ],
            [
              61.533476483000072,
              36.033247196000048
            ],
            [
              61.525899241000047,
              36.635015625000051
            ],
            [
              61.480174504000047,
              36.695271672000047
            ],
            [
              61.326670031000049,
              36.865305281000076
            ],
            [
              61.284211347000053,
              36.90971335200004
            ],
            [
              61.218890294000062,
              36.969753734000051
            ],
            [
              61.147037137000041,
              37.055815966000068
            ],
            [
              61.02945924200003,
              37.206840533000047
            ],
            [
              60.895551085000079,
              37.414655242000038
            ],
            [
              60.846560296000064,
              37.523527856000044
            ],
            [
              60.823697927000069,
              37.567550249000078
            ],
            [
              60.843294243000059,
              37.601196887000071
            ],
            [
              60.964138190000028,
              37.614133853000055
            ],
            [
              60.990266611000038,
              37.637414719000049
            ],
            [
              60.980468453000071,
              37.673614904000033
            ],
            [
              60.957606085000066,
              37.709797438000066
            ],
            [
              60.931477664000056,
              37.774365182000054
            ],
            [
              60.938009769000075,
              37.797595780000051
            ],
            [
              60.957606085000066,
              37.813078788000041
            ],
            [
              61.000064769000062,
              37.831138195000051
            ],
            [
              61.016395032000048,
              37.854350938000039
            ],
            [
              61.016395032000048,
              37.960005394000063
            ],
            [
              60.983734506000076,
              37.990899944000034
            ],
            [
              60.918413453000028,
              38.024354362000054
            ],
            [
              60.872688717000074,
              38.050078141000029
            ],
            [
              60.79103740100004,
              38.114348051000036
            ],
            [
              60.709386086000052,
              38.173426461000076
            ],
            [
              60.627734770000075,
              38.242718317000026
            ],
            [
              60.563589497000066,
              38.308151297000052
            ],
            [
              60.54686730700007,
              38.334389958000031
            ],
            [
              60.536415939000051,
              38.363897098000052
            ],
            [
              60.528054844000053,
              38.39503047900007
            ],
            [
              60.511332655000047,
              38.426150460000031
            ],
            [
              60.492520192000029,
              38.447435356000028
            ],
            [
              60.461166087000038,
              38.491622393000057
            ],
            [
              60.410999519000029,
              38.542322260000049
            ],
            [
              60.398457876000066,
              38.568475961000047
            ],
            [
              60.400548150000077,
              38.596253841000078
            ],
            [
              60.398457876000066,
              38.628919943000028
            ],
            [
              60.390096782000057,
              38.651777363000065
            ],
            [
              60.377555140000027,
              38.672995583000045
            ],
            [
              60.354562129000044,
              38.700732998000035
            ],
            [
              60.348291308000057,
              38.726828978000071
            ],
            [
              60.352471856000079,
              38.739873395000075
            ],
            [
              60.44335695500007,
              38.736482075000026
            ],
            [
              60.440681405000078,
              38.936554382000054
            ],
            [
              60.56996646500005,
              38.938353015000075
            ],
            [
              60.56996646500005,
              39.334179949000031
            ],
            [
              60.881262105000076,
              39.346020361000058
            ],
            [
              60.881262105000076,
              39.480071474000056
            ],
            [
              60.768991546000052,
              39.480071474000056
            ],
            [
              60.615895330000058,
              39.468253803000039
            ],
            [
              60.56996646500005,
              39.452493786000048
            ],
            [
              60.503624771000034,
              39.436730201000046
            ],
            [
              60.463819755000031,
              39.426481958000068
            ],
            [
              60.457695906000083,
              39.424905171000034
            ],
            [
              60.421973455000057,
              39.424905171000034
            ],
            [
              60.360734969000077,
              39.428847071000064
            ],
            [
              60.304599689000042,
              39.428847071000064
            ],
            [
              60.263774032000072,
              39.444612440000071
            ],
            [
              60.263774032000072,
              39.484010251000029
            ],
            [
              60.258670824000035,
              39.527322079000044
            ],
            [
              60.217845167000064,
              39.562738947000071
            ],
            [
              60.177019509000047,
              39.582407174000025
            ],
            [
              60.049439328000062,
              39.543065141000056
            ],
            [
              60.003510463000055,
              39.539129710000054
            ],
            [
              59.972891220000065,
              39.566673039000079
            ],
            [
              59.967788013000074,
              39.621726886000033
            ],
            [
              59.957581599000036,
              39.931567234000056
            ],
            [
              59.513602571000035,
              39.931567234000056
            ],
            [
              59.273751831000027,
              39.939393184000039
            ],
            [
              59.084933164000063,
              39.947218239000051
            ],
            [
              59.013488263000056,
              39.966776961000051
            ],
            [
              58.957352984000067,
              40.017603455000028
            ],
            [
              58.977765813000076,
              40.072297373000026
            ],
            [
              58.942043362000049,
              40.087916147000044
            ],
            [
              58.829772803000083,
              40.099627876000056
            ],
            [
              58.737915074000057,
              40.126947405000067
            ],
            [
              58.66136696500007,
              40.130849299000033
            ],
            [
              58.554199614000026,
              40.130849299000033
            ],
            [
              58.498064334000048,
              40.165956265000034
            ],
            [
              58.425239526000041,
              40.160165646000053
            ],
            [
              58.38343405300003,
              40.150580087000037
            ],
            [
              58.379253505000065,
              40.129806735000045
            ],
            [
              58.381343779000076,
              40.105829591000031
            ],
            [
              58.354170221000061,
              40.09463736400005
            ],
            [
              58.318635569000037,
              40.104230815000051
            ],
            [
              58.297732832000065,
              40.107428331000051
            ],
            [
              58.18903860100005,
              40.107428331000051
            ],
            [
              58.145142853000038,
              40.101033148000056
            ],
            [
              58.053170812000076,
              40.081843994000053
            ],
            [
              57.946566854000082,
              40.053050118000044
            ],
            [
              57.896400286000073,
              40.048249956000063
            ],
            [
              57.724997844000029,
              40.049850048000053
            ],
            [
              57.65601881300006,
              40.056250039000076
            ],
            [
              57.467894182000066,
              40.051450102000047
            ],
            [
              57.434449803000064,
              40.048249956000063
            ],
            [
              57.417727614000057,
              40.040248934000033
            ],
            [
              57.382192962000033,
              40.01143748100003
            ],
            [
              57.327845846000059,
              39.995425860000068
            ],
            [
              57.275589004000039,
              39.989020161000042
            ],
            [
              57.244234899000048,
              39.995425860000068
            ],
            [
              57.218975103000048,
              40.022677173000034
            ],
            [
              57.179842120000046,
              39.902701310000054
            ],
            [
              57.179842120000046,
              39.817010495000034
            ],
            [
              57.211737165000045,
              39.737344664000034
            ],
            [
              57.227684688000068,
              39.663725146000047
            ],
            [
              57.243632210000044,
              39.602315569000041
            ],
            [
              57.195789642000079,
              39.54700034800004
            ],
            [
              57.068209462000027,
              39.467022680000071
            ],
            [
              57.036314417000028,
              39.393115460000047
            ],
            [
              56.980498088000047,
              39.282107692000068
            ],
            [
              56.916707998000049,
              39.177105231000041
            ],
            [
              56.860891669000068,
              39.071945720000031
            ],
            [
              56.709390205000034,
              38.730649238000069
            ],
            [
              56.677495159000046,
              38.624825931000032
            ],
            [
              56.605731308000031,
              38.543796692000058
            ],
            [
              56.533967456000028,
              38.493887112000039
            ],
            [
              56.557888740000067,
              38.431451485000025
            ],
            [
              56.597757547000072,
              38.381464078000079
            ],
            [
              56.669521398000029,
              38.387714395000046
            ],
            [
              56.852917908000052,
              38.37521322200007
            ],
            [
              56.860891669000068,
              38.331442105000065
            ],
            [
              56.988471849000064,
              38.31267495600008
            ],
            [
              57.124025791000065,
              38.300160825000034
            ]
          ]
        ]
      }
    }
  ]
}
