{
  "type": "FeatureCollection",
  "name": "turkmenistan-balkan",
  "properties": {
    "source": "geoBoundaries",
    "boundary_id": "TKM-ADM1-27578892",
    "represented_year": 2007,
    "license": "Public Domain",
    "srid": 4326
  },
  "features": [
    {
      "type": "Feature",
      "properties": {
        "slug": "turkmenistan-balkan",
        "name_tm": "Balkan",
        "name_en": "Balkan",
        "iso_3166_2": "TM-B",
        "admin_level": 1,
        "source_shape_id": "27578892B85944744725550"
      },
      "geometry": {
        "type": "Polygon",
        "coordinates": [
          [
            [
              57.124025791000065,
              38.300160825000034
            ],
            [
              56.988471849000064,
              38.31267495600008
            ],
            [
              56.860891669000068,
              38.331442105000065
            ],
            [
              56.852917908000052,
              38.37521322200007
            ],
            [
              56.669521398000029,
              38.387714395000046
            ],
            [
              56.597757547000072,
              38.381464078000079
            ],
            [
              56.557888740000067,
              38.431451485000025
            ],
            [
              56.533967456000028,
              38.493887112000039
            ],
            [
              56.605731308000031,
              38.543796692000058
            ],
            [
              56.677495159000046,
              38.624825931000032
            ],
            [
              56.709390205000034,
              38.730649238000069
            ],
            [
              56.860891669000068,
              39.071945720000031
            ],
            [
              56.916707998000049,
              39.177105231000041
            ],
            [
              56.980498088000047,
              39.282107692000068
            ],
            [
              57.036314417000028,
              39.393115460000047
            ],
            [
              57.068209462000027,
              39.467022680000071
            ],
            [
              57.195789642000079,
              39.54700034800004
            ],
            [
              57.243632210000044,
              39.602315569000041
            ],
            [
              57.227684688000068,
              39.663725146000047
            ],
            [
              57.211737165000045,
              39.737344664000034
            ],
            [
              57.179842120000046,
              39.817010495000034
            ],
            [
              57.179842120000046,
              39.902701310000054
            ],
            [
              57.218975103000048,
              40.022677173000034
            ],
            [
              57.219710926000062,
              40.024931078000066
            ],
            [
              57.108078268000042,
              40.104263212000035
            ],
            [
              57.068209462000027,
              40.165225055000064
            ],
            [
              57.100104507000083,
              40.232219907000058
            ],
            [
              57.131999552000082,
              40.293066865000071
            ],
            [
              57.124025791000065,
              40.414596549000066
            ],
            [
              57.076183223000044,
              40.499536971000055
            ],
            [
              57.012393133000046,
              40.566200524000067
            ],
            [
              56.956576804000065,
              40.620694093000054
            ],
            [
              56.876839191000045,
              40.705373574000077
            ],
            [
              56.828996624000069,
              40.777870402000076
            ],
            [
              56.813049101000047,
              40.838224056000058
            ],
            [
              56.789127817000065,
              40.904549664000058
            ],
            [
              56.781154056000048,
              40.994886579000081
            ],
            [
              56.757232772000066,
              41.030986734000066
            ],
            [
              56.685468921000052,
              41.061055084000031
            ],
            [
              56.605731308000031,
              41.067067105000035
            ],
            [
              56.565862502000073,
              41.211190692000059
            ],
            [
              56.525993695000068,
              41.265155374000074
            ],
            [
              56.478151128000036,
              41.283133699000075
            ],
            [
              56.358544708000068,
              41.307097096000064
            ],
            [
              56.208765577000065,
              41.326395606000062
            ],
            [
              56.032398735000072,
              41.323942885000065
            ],
            [
              55.94748136700008,
              41.328848235000066
            ],
            [
              55.908288736000031,
              41.360724006000055
            ],
            [
              55.859297946000027,
              41.314131078000059
            ],
            [
              55.780912683000054,
              41.27732364600007
            ],
            [
              55.689463210000042,
              41.26995966700008
            ],
            [
              55.598013737000031,
              41.265049886000043
            ],
            [
              55.509830316000034,
              41.272414419000029
            ],
            [
              55.470637685000042,
              41.287140992000047
            ],
            [
              55.431445053000061,
              41.304317794000042
            ],
            [
              55.415114790000075,
              41.333753215000058
            ],
            [
              55.379188211000042,
              41.380332109000051
            ],
            [
              55.343261632000065,
              41.395034308000049
            ],
            [
              55.297536896000054,
              41.417081372000041
            ],
            [
              55.251812159000053,
              41.451361935000079
            ],
            [
              55.206087422000053,
              41.492963992000057
            ],
            [
              55.176692949000028,
              41.529649516000063
            ],
            [
              55.059115055000063,
              41.688379821000069
            ],
            [
              54.993794002000072,
              41.742015446000039
            ],
            [
              54.954601371000081,
              41.780995059000077
            ],
            [
              54.954601371000081,
              41.844286421000049
            ],
            [
              54.938271108000038,
              41.888066880000054
            ],
            [
              54.88274821300007,
              41.917237196000031
            ],
            [
              54.712913477000029,
              42.048338672000057
            ],
            [
              54.585537425000041,
              42.10651933500003
            ],
            [
              54.428766899000038,
              42.171908815000052
            ],
            [
              54.32751926800006,
              42.217883154000049
            ],
            [
              54.216473479000058,
              42.273491551000063
            ],
            [
              54.131556111000066,
              42.297653825000054
            ],
            [
              54.030308480000031,
              42.297653825000054
            ],
            [
              53.922528743000044,
              42.280741206000073
            ],
            [
              53.801684796000075,
              42.266241061000073
            ],
            [
              53.625317955000071,
              42.239648799000065
            ],
            [
              53.546932692000041,
              42.239648799000065
            ],
            [
              53.448951113000078,
              42.229976105000048
            ],
            [
              53.311776903000066,
              42.19369030200005
            ],
            [
              53.239923746000045,
              42.167067465000059
            ],
            [
              53.145208220000029,
              42.138011587000051
            ],
            [
              53.073355062000076,
              42.118633592000037
            ],
            [
              52.991703747000031,
              42.094402762000072
            ],
            [
              52.916584536000073,
              42.065313542000069
            ],
            [
              52.834933221000028,
              42.014375322000035
            ],
            [
              52.792474537000032,
              41.977965881000046
            ],
            [
              52.658566379000035,
              41.878340480000077
            ],
            [
              52.593245327000034,
              41.83211986200007
            ],
            [
              52.508327959000042,
              41.780995059000077
            ],
            [
              52.452805064000074,
              41.754199119000077
            ],
            [
              52.41687848600003,
              41.734704133000037
            ],
            [
              52.41687848600003,
              41.722516761000065
            ],
            [
              52.505061906000037,
              41.690818775000025
            ],
            [
              52.550786643000038,
              41.668864861000031
            ],
            [
              52.567116906000081,
              41.632258361000027
            ],
            [
              52.544254538000075,
              41.566314248000026
            ],
            [
              52.518126117000065,
              41.517423318000056
            ],
            [
              52.518126117000065,
              41.488071018000028
            ],
            [
              52.557318748000057,
              41.47094270000008
            ],
            [
              52.616107695000039,
              41.463600606000057
            ],
            [
              52.658566379000035,
              41.444017624000026
            ],
            [
              52.691226906000054,
              41.42197970400008
            ],
            [
              52.782676379000065,
              41.309224620000066
            ],
            [
              52.828401116000066,
              41.218388557000026
            ],
            [
              52.834933221000028,
              41.152023050000025
            ],
            [
              52.838199274000033,
              41.088051965000034
            ],
            [
              52.844731379000052,
              41.065893602000074
            ],
            [
              52.887190063000048,
              41.026482515000055
            ],
            [
              52.903520326000034,
              41.009232742000052
            ],
            [
              52.92638269400004,
              40.959922789000075
            ],
            [
              52.903520326000034,
              40.893295875000035
            ],
            [
              52.870859800000062,
              40.868602195000051
            ],
            [
              52.795740589000047,
              40.774682204000044
            ],
            [
              52.789208484000028,
              40.752418519000059
            ],
            [
              52.795740589000047,
              40.735097163000034
            ],
            [
              52.818602958000042,
              40.71777129700007
            ],
            [
              52.841465326000048,
              40.695488556000043
            ],
            [
              52.831667168000081,
              40.678152381000075
            ],
            [
              52.789208484000028,
              40.648422732000029
            ],
            [
              52.779410326000061,
              40.623637903000031
            ],
            [
              52.756417316000068,
              40.588526848000072
            ],
            [
              52.712521569000046,
              40.55041942500003
            ],
            [
              52.697889653000061,
              40.509111898000072
            ],
            [
              52.69579937900005,
              40.412098161000074
            ],
            [
              52.662355001000037,
              40.349999581000077
            ],
            [
              52.660264727000026,
              40.310162695000031
            ],
            [
              52.674896643000068,
              40.279870937000055
            ],
            [
              52.699979927000072,
              40.249565600000039
            ],
            [
              52.710431295000035,
              40.211265771000058
            ],
            [
              52.714611842000068,
              40.177735656000038
            ],
            [
              52.708341021000081,
              40.128208522000079
            ],
            [
              52.708341021000081,
              40.077045860000055
            ],
            [
              52.714611842000068,
              40.048249956000063
            ],
            [
              52.733424305000028,
              40.025844728000038
            ],
            [
              52.760597863000044,
              40.003432140000029
            ],
            [
              52.800313063000033,
              39.96659548100007
            ],
            [
              52.833757442000035,
              39.940958266000052
            ],
            [
              52.904826747000072,
              39.89286259000005
            ],
            [
              52.934090578000053,
              39.870406383000045
            ],
            [
              52.963354410000079,
              39.835103200000049
            ],
            [
              52.990527968000038,
              39.788539448000051
            ],
            [
              53.009340431000055,
              39.778901631000053
            ],
            [
              53.038604262000035,
              39.753194184000051
            ],
            [
              53.053236178000077,
              39.735514748000071
            ],
            [
              53.074138915000049,
              39.714615020000053
            ],
            [
              53.132666578000055,
              39.703358697000056
            ],
            [
              53.151479041000073,
              39.711399115000063
            ],
            [
              53.103402746000029,
              39.759621946000038
            ],
            [
              53.078319462000081,
              39.778901631000053
            ],
            [
              53.055326452000031,
              39.820655756000065
            ],
            [
              53.02397234600005,
              39.857570963000057
            ],
            [
              52.946632220000026,
              39.912104914000054
            ],
            [
              52.929910031000077,
              39.939355621000061
            ],
            [
              52.91318784200007,
              39.974605140000051
            ],
            [
              52.917368389000046,
              39.995425860000068
            ],
            [
              52.954993315000081,
              39.993824492000044
            ],
            [
              53.009340431000055,
              39.995425860000068
            ],
            [
              53.038604262000035,
              39.98741864200008
            ],
            [
              53.082500009000057,
              39.979410485000074
            ],
            [
              53.126395757000068,
              39.992223085000035
            ],
            [
              53.153569314000038,
              40.00983648700003
            ],
            [
              53.182833146000064,
              40.003432140000029
            ],
            [
              53.224638619000075,
              39.981012191000048
            ],
            [
              53.262263546000042,
              39.97140138900005
            ],
            [
              53.327062030000036,
              39.969799457000079
            ],
            [
              53.389770240000075,
              39.973003283000025
            ],
            [
              53.43366598700004,
              39.945765976000075
            ],
            [
              53.435756261000051,
              39.913708197000062
            ],
            [
              53.431575713000029,
              39.894466324000064
            ],
            [
              53.398131335000073,
              39.857570963000057
            ],
            [
              53.385589692000053,
              39.838313331000052
            ],
            [
              53.383499419000032,
              39.786933239000064
            ],
            [
              53.400221608000038,
              39.762835602000052
            ],
            [
              53.43366598700004,
              39.727477141000065
            ],
            [
              53.454568724000069,
              39.682449224000038
            ],
            [
              53.454568724000069,
              39.651877834000061
            ],
            [
              53.439936808000027,
              39.624513020000052
            ],
            [
              53.423214619000078,
              39.614852266000071
            ],
            [
              53.356325861000073,
              39.592305262000025
            ],
            [
              53.331242577000069,
              39.589083662000064
            ],
            [
              53.276895461000038,
              39.587472806000051
            ],
            [
              53.283166282000082,
              39.645440028000053
            ],
            [
              53.306159293000064,
              39.669578709000064
            ],
            [
              53.335423124000044,
              39.68566647800003
            ],
            [
              53.35214531400004,
              39.709791106000068
            ],
            [
              53.337513398000056,
              39.721046380000075
            ],
            [
              53.297798198000066,
              39.732299817000069
            ],
            [
              53.278985735000049,
              39.733907301000045
            ],
            [
              53.237180261000049,
              39.680840541000066
            ],
            [
              53.195374788000038,
              39.622902988000078
            ],
            [
              53.10549302000004,
              39.490752920000034
            ],
            [
              53.072048641000038,
              39.463324453000041
            ],
            [
              53.06368754600004,
              39.445570859000043
            ],
            [
              53.106015588000048,
              39.382791777000079
            ],
            [
              53.135410062000062,
              39.349966719000065
            ],
            [
              53.158272430000068,
              39.301963885000077
            ],
            [
              53.161538483000072,
              39.258986057000072
            ],
            [
              53.181134799000063,
              39.243811117000064
            ],
            [
              53.200731114000064,
              39.291853827000068
            ],
            [
              53.21706137700005,
              39.317126234000057
            ],
            [
              53.230125588000078,
              39.365118663000032
            ],
            [
              53.246455851000064,
              39.395412690000057
            ],
            [
              53.350969535000047,
              39.365118663000032
            ],
            [
              53.396694271000058,
              39.362593567000033
            ],
            [
              53.458749271000045,
              39.339863597000033
            ],
            [
              53.501207955000041,
              39.314599404000035
            ],
            [
              53.517538218000027,
              39.291853827000068
            ],
            [
              53.540400587000079,
              39.231162825000069
            ],
            [
              53.576327165000066,
              39.193204270000081
            ],
            [
              53.684106902000053,
              39.071599053000057
            ],
            [
              53.713501375000078,
              39.036091318000047
            ],
            [
              53.733097691000069,
              39.023405657000069
            ],
            [
              53.785354533000032,
              39.046238207000044
            ],
            [
              53.811482954000041,
              39.046238207000044
            ],
            [
              53.850675585000033,
              39.025942971000063
            ],
            [
              53.873537954000028,
              39.010717720000059
            ],
            [
              53.909464533000062,
              38.959943209000073
            ],
            [
              53.915996638000081,
              38.909132287000034
            ],
            [
              53.899666375000038,
              38.845567453000058
            ],
            [
              53.880070059000047,
              38.799765574000048
            ],
            [
              53.870271901000081,
              38.771761035000054
            ],
            [
              53.847409533000075,
              38.725911702000076
            ],
            [
              53.814749007000046,
              38.641778139000053
            ],
            [
              53.804950849000079,
              38.590739969000026
            ],
            [
              53.811482954000041,
              38.547328978000053
            ],
            [
              53.818015059000061,
              38.462985734000029
            ],
            [
              53.831079270000032,
              38.416938704000074
            ],
            [
              53.831079270000032,
              38.365740895000044
            ],
            [
              53.844143480000071,
              38.265800941000066
            ],
            [
              53.79841874400006,
              38.096358171000077
            ],
            [
              53.79841874400006,
              38.050078141000029
            ],
            [
              53.801684796000075,
              37.983177525000031
            ],
            [
              53.808216901000037,
              37.941977570000063
            ],
            [
              53.808216901000037,
              37.893022605000056
            ],
            [
              53.795152691000055,
              37.838876588000062
            ],
            [
              53.795152691000055,
              37.795014963000028
            ],
            [
              53.79841874400006,
              37.735631294000029
            ],
            [
              53.808216901000037,
              37.681369791000066
            ],
            [
              53.827813217000028,
              37.621894952000048
            ],
            [
              53.847409533000075,
              37.580493063000063
            ],
            [
              53.853941638000038,
              37.520937494000066
            ],
            [
              53.863739796000061,
              37.396494393000069
            ],
            [
              53.876804006000043,
              37.375733748000073
            ],
            [
              53.955189269000073,
              37.349774860000025
            ],
            [
              54.164216637000038,
              37.336792048000063
            ],
            [
              54.291592689000026,
              37.341985442000066
            ],
            [
              54.422234794000076,
              37.39130477100008
            ],
            [
              54.484289794000063,
              37.422437115000037
            ],
            [
              54.530014530000074,
              37.44837085100005
            ],
            [
              54.579005320000078,
              37.453556520000063
            ],
            [
              54.634528214000056,
              37.450963730000069
            ],
            [
              54.719445582000048,
              37.474295600000062
            ],
            [
              54.774968477000073,
              37.513165868000044
            ],
            [
              54.78476663500004,
              37.629655240000034
            ],
            [
              54.781500582000035,
              37.691708378000044
            ],
            [
              54.791298740000059,
              37.727882084000044
            ],
            [
              54.823959266000031,
              37.774365182000054
            ],
            [
              54.886014266000075,
              37.802757144000054
            ],
            [
              54.948069266000061,
              37.833717749000073
            ],
            [
              55.003592160000039,
              37.872400242000026
            ],
            [
              55.04931689700004,
              37.911062436000066
            ],
            [
              55.104839791000074,
              37.972879704000036
            ],
            [
              55.189757159000067,
              38.008915758000057
            ],
            [
              55.248546106000049,
              38.021781487000055
            ],
            [
              55.31386715900004,
              38.042361956000036
            ],
            [
              55.415114790000075,
              38.104068662000032
            ],
            [
              55.470637685000042,
              38.127195253000025
            ],
            [
              55.516362421000053,
              38.132333501000062
            ],
            [
              55.571885316000078,
              38.132333501000062
            ],
            [
              55.620876105000036,
              38.140040194000051
            ],
            [
              55.673132947000056,
              38.158019314000057
            ],
            [
              55.722123736000071,
              38.165723295000078
            ],
            [
              55.797242947000029,
              38.142608911000025
            ],
            [
              55.852765841000064,
              38.119487203000062
            ],
            [
              55.92135294600007,
              38.101498588000027
            ],
            [
              55.970343735000029,
              38.101498588000027
            ],
            [
              56.051995051000063,
              38.109208537000029
            ],
            [
              56.117316103000064,
              38.119487203000062
            ],
            [
              56.15977478700006,
              38.109208537000029
            ],
            [
              56.192435313000033,
              38.096358171000077
            ],
            [
              56.287150839000049,
              38.096358171000077
            ],
            [
              56.35247189200004,
              38.119487203000062
            ],
            [
              56.339407681000068,
              38.160587398000075
            ],
            [
              56.319811366000067,
              38.196531075000053
            ],
            [
              56.381866365000064,
              38.265800941000066
            ],
            [
              56.466783733000057,
              38.278621453000028
            ],
            [
              56.522306628000081,
              38.288876233000053
            ],
            [
              56.579862314000081,
              38.292666033000046
            ],
            [
              56.618657793000068,
              38.288466069000037
            ],
            [
              56.67751990000005,
              38.301065230000063
            ],
            [
              56.706950953000046,
              38.310513165000032
            ],
            [
              56.740395332000048,
              38.309463455000071
            ],
            [
              56.781866362000073,
              38.286365997000075
            ],
            [
              56.828688492000026,
              38.277965098000038
            ],
            [
              56.891563924000081,
              38.243301115000065
            ],
            [
              56.939723830000048,
              38.232793613000069
            ],
            [
              57.001261487000079,
              38.224386518000074
            ],
            [
              57.034705866000081,
              38.223335562000045
            ],
            [
              57.082865771000058,
              38.231742779000058
            ],
            [
              57.105607949000046,
              38.24645307000003
            ],
            [
              57.129687901000068,
              38.267462607000027
            ],
            [
              57.151092304000031,
              38.300015384000062
            ],
            [
              57.124025791000065,
              38.300160825000034
            ]
          ]
        ]
      }
    }
  ]
}
