{
  "type": "FeatureCollection",
  "name": "turkmenistan-dasoguz",
  "properties": {
    "source": "geoBoundaries",
    "boundary_id": "TKM-ADM1-27578892",
    "represented_year": 2007,
    "license": "Public Domain",
    "srid": 4326
  },
  "features": [
    {
      "type": "Feature",
      "properties": {
        "slug": "turkmenistan-dasoguz",
        "name_tm": "Daşoguz",
        "name_en": "Dashoguz",
        "iso_3166_2": "TM-D",
        "admin_level": 1,
        "source_shape_id": "27578892B88292714467572"
      },
      "geometry": {
        "type": "Polygon",
        "coordinates": [
          [
            [
              57.218975103000048,
              40.022677173000034
            ],
            [
              57.244234899000048,
              39.995425860000068
            ],
            [
              57.275589004000039,
              39.989020161000042
            ],
            [
              57.327845846000059,
              39.995425860000068
            ],
            [
              57.382192962000033,
              40.01143748100003
            ],
            [
              57.417727614000057,
              40.040248934000033
            ],
            [
              57.434449803000064,
              40.048249956000063
            ],
            [
              57.467894182000066,
              40.051450102000047
            ],
            [
              57.65601881300006,
              40.056250039000076
            ],
            [
              57.724997844000029,
              40.049850048000053
            ],
            [
              57.896400286000073,
              40.048249956000063
            ],
            [
              57.946566854000082,
              40.053050118000044
            ],
            [
              58.053170812000076,
              40.081843994000053
            ],
            [
              58.145142853000038,
              40.101033148000056
            ],
            [
              58.18903860100005,
              40.107428331000051
            ],
            [
              58.297732832000065,
              40.107428331000051
            ],
            [
              58.318635569000037,
              40.104230815000051
            ],
            [
              58.354170221000061,
              40.09463736400005
            ],
            [
              58.381343779000076,
              40.105829591000031
            ],
            [
              58.379253505000065,
              40.129806735000045
            ],
            [
              58.38343405300003,
              40.150580087000037
            ],
            [
              58.425239526000041,
              40.160165646000053
            ],
            [
              58.498064334000048,
              40.165956265000034
            ],
            [
              58.554199614000026,
              40.130849299000033
            ],
            [
              58.66136696500007,
              40.130849299000033
            ],
            [
              58.737915074000057,
              40.126947405000067
            ],
            [
              58.829772803000083,
              40.099627876000056
            ],
            [
              58.942043362000049,
              40.087916147000044
            ],
            [
              58.977765813000076,
              40.072297373000026
            ],
            [
              58.957352984000067,
              40.017603455000028
            ],
            [
              59.013488263000056,
              39.966776961000051
            ],
            [
              59.084933164000063,
              39.947218239000051
            ],
            [
              59.273751831000027,
              39.939393184000039
            ],
            [
              59.513602571000035,
              39.931567234000056
            ],
            [
              59.957581599000036,
              39.931567234000056
            ],
            [
              59.967788013000074,
              39.621726886000033
            ],
            [
              59.972891220000065,
              39.566673039000079
            ],
            [
              60.003510463000055,
              39.539129710000054
            ],
            [
              60.049439328000062,
              39.543065141000056
            ],
            [
              60.177019509000047,
              39.582407174000025
            ],
            [
              60.217845167000064,
              39.562738947000071
            ],
            [
              60.258670824000035,
              39.527322079000044
            ],
            [
              60.263774032000072,
              39.484010251000029
            ],
            [
              60.263774032000072,
              39.444612440000071
            ],
            [
              60.304599689000042,
              39.428847071000064
            ],
            [
              60.360734969000077,
              39.428847071000064
            ],
            [
              60.421973455000057,
              39.424905171000034
            ],
            [
              60.457695906000083,
              39.424905171000034
            ],
            [
              60.463819755000031,
              39.426481958000068
            ],
            [
              60.467902320000064,
              39.578473975000065
            ],
            [
              60.462799113000074,
              39.904169363000051
            ],
            [
              60.457695906000083,
              40.142553637000049
            ],
            [
              60.442386284000065,
              40.21663428800008
            ],
            [
              60.396457419000058,
              40.267274438000072
            ],
            [
              60.187225923000028,
              40.267274438000072
            ],
            [
              60.192329131000065,
              40.929856458000074
            ],
            [
              60.911881348000065,
              40.945276799000055
            ],
            [
              60.922087763000036,
              40.972253733000059
            ],
            [
              60.927190970000083,
              41.014623781000068
            ],
            [
              60.927190970000083,
              41.187672147000058
            ],
            [
              60.947603799000035,
              41.252927284000066
            ],
            [
              60.879220822000036,
              41.261318206000055
            ],
            [
              60.826963980000073,
              41.262889466000047
            ],
            [
              60.774707138000053,
              41.272316230000058
            ],
            [
              60.716179475000047,
              41.270745197000053
            ],
            [
              60.676464275000058,
              41.25188985300008
            ],
            [
              60.647200444000077,
              41.242460140000048
            ],
            [
              60.590763055000082,
              41.233029066000029
            ],
            [
              60.507152108000071,
              41.226740927000037
            ],
            [
              60.473707729000068,
              41.234601006000048
            ],
            [
              60.45280499200004,
              41.244031853000081
            ],
            [
              60.421450887000049,
              41.266031872000042
            ],
            [
              60.350381582000068,
              41.305299188000049
            ],
            [
              60.265432860000033,
              41.342534170000079
            ],
            [
              60.227975155000081,
              41.352577063000069
            ],
            [
              60.15707307200006,
              41.375669838000078
            ],
            [
              60.128979794000031,
              41.392733143000044
            ],
            [
              60.087508764000063,
              41.425843247000046
            ],
            [
              60.07948211300004,
              41.443896191000078
            ],
            [
              60.082157664000079,
              41.464951613000039
            ],
            [
              60.107575392000058,
              41.521065988000032
            ],
            [
              60.13165534400008,
              41.558114886000055
            ],
            [
              60.186817667000071,
              41.568757824000045
            ],
            [
              60.203147930000057,
              41.595631062000052
            ],
            [
              60.190083719000029,
              41.622493115000054
            ],
            [
              60.173753456000043,
              41.644462839000028
            ],
            [
              60.092102141000055,
              41.710327078000034
            ],
            [
              60.079037930000027,
              41.737141330000043
            ],
            [
              60.082303983000031,
              41.75176256900005
            ],
            [
              60.105166351000037,
              41.776123902000052
            ],
            [
              60.124762667000027,
              41.790736262000053
            ],
            [
              60.14109293000007,
              41.798041193000074
            ],
            [
              60.183551614000066,
              41.793171331000053
            ],
            [
              60.229276351000067,
              41.785865845000046
            ],
            [
              60.278267140000082,
              41.768816473000072
            ],
            [
              60.288065298000049,
              41.771252376000064
            ],
            [
              60.288065298000049,
              41.79560630800006
            ],
            [
              60.258670824000035,
              41.82968627300005
            ],
            [
              60.170487404000028,
              41.868612600000063
            ],
            [
              60.157423193000056,
              41.885635419000039
            ],
            [
              60.134560825000051,
              41.926957673000061
            ],
            [
              60.108432404000041,
              41.956110219000038
            ],
            [
              60.06923977200006,
              41.994959546000075
            ],
            [
              60.04311135100005,
              42.043487876000029
            ],
            [
              60.039845299000035,
              42.162225745000057
            ],
            [
              60.023515036000049,
              42.196110004000047
            ],
            [
              59.967992141000082,
              42.234812637000061
            ],
            [
              59.932065562000048,
              42.256572445000074
            ],
            [
              59.827551879000055,
              42.280741206000073
            ],
            [
              59.755698721000044,
              42.28315757200005
            ],
            [
              59.706707932000029,
              42.28315757200005
            ],
            [
              59.667515300000048,
              42.266241061000073
            ],
            [
              59.634854774000075,
              42.26140693800005
            ],
            [
              59.563001616000065,
              42.256572445000074
            ],
            [
              59.406231091000052,
              42.268657984000072
            ],
            [
              59.363772407000056,
              42.28315757200005
            ],
            [
              59.34744214400007,
              42.292822112000067
            ],
            [
              59.314781617000051,
              42.32180683200005
            ],
            [
              59.29518530200005,
              42.343536614000072
            ],
            [
              59.278855039000064,
              42.374910822000061
            ],
            [
              59.275588986000059,
              42.401445994000028
            ],
            [
              59.249460565000049,
              42.447253049000039
            ],
            [
              59.207001881000053,
              42.468939446000036
            ],
            [
              59.164543197000057,
              42.485801451000043
            ],
            [
              59.128616618000081,
              42.490618332000054
            ],
            [
              59.109020302000033,
              42.485801451000043
            ],
            [
              59.066561618000037,
              42.478575434000049
            ],
            [
              59.020836882000083,
              42.478575434000049
            ],
            [
              58.975112145000082,
              42.485801451000043
            ],
            [
              58.939185566000049,
              42.500250982000068
            ],
            [
              58.880396619000066,
              42.541173189000062
            ],
            [
              58.824873725000032,
              42.596495864000076
            ],
            [
              58.723626093000064,
              42.656573550000076
            ],
            [
              58.677901357000053,
              42.690191727000069
            ],
            [
              58.645240830000034,
              42.718992833000073
            ],
            [
              58.612580304000062,
              42.72379171800003
            ],
            [
              58.576653725000028,
              42.65897545200005
            ],
            [
              58.566855568000051,
              42.62534038900003
            ],
            [
              58.537461094000037,
              42.60851604000004
            ],
            [
              58.481938200000059,
              42.60851604000004
            ],
            [
              58.419883200000072,
              42.610919796000076
            ],
            [
              58.344763990000047,
              42.632549433000065
            ],
            [
              58.30883741100007,
              42.644562651000058
            ],
            [
              58.285975042000075,
              42.644562651000058
            ],
            [
              58.201057674000083,
              42.606112190000033
            ],
            [
              58.161865043000034,
              42.598900085000025
            ],
            [
              58.148800832000063,
              42.57244855600004
            ],
            [
              58.171663201000058,
              42.553204031000064
            ],
            [
              58.227186095000036,
              42.543579543000078
            ],
            [
              58.318635569000037,
              42.514697174000048
            ],
            [
              58.351296095000066,
              42.497842959000025
            ],
            [
              58.380690568000034,
              42.476166576000026
            ],
            [
              58.406818989000044,
              42.44966302000006
            ],
            [
              58.426415305000035,
              42.418326171000047
            ],
            [
              58.436213463000058,
              42.374910822000061
            ],
            [
              58.498268463000045,
              42.302485168000032
            ],
            [
              58.504800568000064,
              42.263824046000025
            ],
            [
              58.462341884000068,
              42.266241061000073
            ],
            [
              58.429681358000039,
              42.285573846000034
            ],
            [
              58.416617147000068,
              42.319391948000032
            ],
            [
              58.416617147000068,
              42.353191885000058
            ],
            [
              58.413351095000053,
              42.372497978000069
            ],
            [
              58.390488726000058,
              42.39179813800007
            ],
            [
              58.338231884000038,
              42.415914995000037
            ],
            [
              58.30883741100007,
              42.420737254000073
            ],
            [
              58.233718200000055,
              42.437612240000078
            ],
            [
              58.119406359000038,
              42.45207289800004
            ],
            [
              58.057351359000052,
              42.45207289800004
            ],
            [
              57.978966096000079,
              42.418326171000047
            ],
            [
              57.96590188600004,
              42.403857726000069
            ],
            [
              57.972433991000059,
              42.384561273000031
            ],
            [
              57.982232149000026,
              42.336294188000068
            ],
            [
              57.972433991000059,
              42.295238015000052
            ],
            [
              57.959369780000031,
              42.251737581000043
            ],
            [
              57.923443202000044,
              42.213045325000053
            ],
            [
              57.887516623000067,
              42.184010568000076
            ],
            [
              57.845057939000071,
              42.164646652000044
            ],
            [
              57.743810308000036,
              42.140433420000079
            ],
            [
              57.665425045000063,
              42.133167644000025
            ],
            [
              57.596837940000057,
              42.133167644000025
            ],
            [
              57.479260045000046,
              42.145276807000073
            ],
            [
              57.417205046000049,
              42.145276807000073
            ],
            [
              57.364948204000029,
              42.130745534000027
            ],
            [
              57.322489520000033,
              42.108942371000069
            ],
            [
              57.253902415000027,
              42.077435671000046
            ],
            [
              57.217975836000051,
              42.048338672000057
            ],
            [
              57.191847415000041,
              42.019228340000041
            ],
            [
              57.159186889000068,
              41.973109715000078
            ],
            [
              57.139590573000078,
              41.922097619000056
            ],
            [
              57.061205310000048,
              41.890498249000075
            ],
            [
              56.982532635000041,
              41.863705295000045
            ],
            [
              56.983870410000065,
              41.709094328000049
            ],
            [
              56.994572611000081,
              41.650144455000031
            ],
            [
              57.010625913000069,
              41.602145404000055
            ],
            [
              57.028016990000083,
              41.558114886000055
            ],
            [
              57.049421392000056,
              41.457933899000068
            ],
            [
              57.06681246900007,
              41.429855447000079
            ],
            [
              57.086879097000065,
              41.410795292000046
            ],
            [
              57.114972375000036,
              41.393736728000079
            ],
            [
              57.13236345200005,
              41.359606166000049
            ],
            [
              57.13236345200005,
              41.333494242000029
            ],
            [
              57.121661251000035,
              41.313401020000072
            ],
            [
              57.086879097000065,
              41.289280977000033
            ],
            [
              57.052096943000038,
              41.272190549000072
            ],
            [
              56.999923712000054,
              41.26213526600003
            ],
            [
              56.926346078000051,
              41.277217610000037
            ],
            [
              56.872835072000044,
              41.293301604000078
            ],
            [
              56.808621865000077,
              41.297321983000074
            ],
            [
              56.732368681000082,
              41.283249572000045
            ],
            [
              56.602604491000079,
              41.282244284000058
            ],
            [
              56.525993695000068,
              41.265155374000074
            ],
            [
              56.565862502000073,
              41.211190692000059
            ],
            [
              56.605731308000031,
              41.067067105000035
            ],
            [
              56.685468921000052,
              41.061055084000031
            ],
            [
              56.757232772000066,
              41.030986734000066
            ],
            [
              56.781154056000048,
              40.994886579000081
            ],
            [
              56.789127817000065,
              40.904549664000058
            ],
            [
              56.813049101000047,
              40.838224056000058
            ],
            [
              56.828996624000069,
              40.777870402000076
            ],
            [
              56.876839191000045,
              40.705373574000077
            ],
            [
              56.956576804000065,
              40.620694093000054
            ],
            [
              57.012393133000046,
              40.566200524000067
            ],
            [
              57.076183223000044,
              40.499536971000055
            ],
            [
              57.124025791000065,
              40.414596549000066
            ],
            [
              57.131999552000082,
              40.293066865000071
            ],
            [
              57.100104507000083,
              40.232219907000058
            ],
            [
              57.068209462000027,
              40.165225055000064
            ],
            [
              57.108078268000042,
              40.104263212000035
            ],
            [
              57.219710926000062,
              40.024931078000066
            ],
            [
              57.218975103000048,
              40.022677173000034
            ]
          ]
        ]
      }
    }
  ]
}
