{
  "type": "FeatureCollection",
  "name": "turkmenistan-lebap",
  "properties": {
    "source": "geoBoundaries",
    "boundary_id": "TKM-ADM1-27578892",
    "represented_year": 2007,
    "license": "Public Domain",
    "srid": 4326
  },
  "features": [
    {
      "type": "Feature",
      "properties": {
        "slug": "turkmenistan-lebap",
        "name_tm": "Lebap",
        "name_en": "Lebap",
        "iso_3166_2": "TM-L",
        "admin_level": 1,
        "source_shape_id": "27578892B29988598794089"
      },
      "geometry": {
        "type": "Polygon",
        "coordinates": [
          [
            [
              60.881262105000076,
              39.480071474000056
            ],
            [
              60.921679506000032,
              39.486215869000034
            ],
            [
              60.931477664000056,
              39.486215869000034
            ],
            [
              60.990266611000038,
              39.468568967000067
            ],
            [
              61.02945924200003,
              39.463526173000048
            ],
            [
              61.176431610000066,
              39.468568967000067
            ],
            [
              61.202560031000075,
              39.455961296000055
            ],
            [
              61.258082926000043,
              39.413078134000045
            ],
            [
              61.434449767000046,
              39.248869795000076
            ],
            [
              61.552027662000057,
              39.160290260000068
            ],
            [
              61.643477135000069,
              39.102020042000049
            ],
            [
              61.73492660800008,
              39.046238207000044
            ],
            [
              61.832908187000044,
              38.962482799000043
            ],
            [
              61.92109160800004,
              38.878628262000063
            ],
            [
              62.094192396000039,
              38.725911702000076
            ],
            [
              62.489384763000032,
              38.439965891000043
            ],
            [
              62.825584055000036,
              38.192199518000052
            ],
            [
              62.937854614000059,
              38.156093192000071
            ],
            [
              63.101157245000081,
              38.115954075000047
            ],
            [
              63.269563083000037,
              38.051685577000057
            ],
            [
              63.774780597000074,
              37.664889688000073
            ],
            [
              63.534929858000055,
              37.38562821000005
            ],
            [
              63.560445894000054,
              36.856649231000063
            ],
            [
              64.310617355000034,
              36.856649231000063
            ],
            [
              64.484126400000036,
              36.864815342000043
            ],
            [
              64.530055265000044,
              36.877062873000057
            ],
            [
              64.749493176000044,
              36.877062873000057
            ],
            [
              64.785215626000081,
              36.913793680000026
            ],
            [
              64.805628455000033,
              36.970895348000056
            ],
            [
              64.800525248000042,
              37.023879997000051
            ],
            [
              64.780112419000034,
              37.084970241000065
            ],
            [
              64.780112419000034,
              37.109392565000064
            ],
            [
              64.81073166200008,
              37.14194341700005
            ],
            [
              64.85155732000004,
              37.178546389000076
            ],
            [
              64.928105428000038,
              37.198873715000047
            ],
            [
              64.999550329000044,
              37.235449110000047
            ],
            [
              65.111820888000068,
              37.263884377000068
            ],
            [
              65.198575411000036,
              37.27200676800004
            ],
            [
              65.310845970000059,
              37.27200676800004
            ],
            [
              65.412910114000056,
              37.263884377000068
            ],
            [
              65.479251808000072,
              37.255761110000037
            ],
            [
              65.555799916000069,
              37.25982285300006
            ],
            [
              65.611935196000047,
              37.296368683000026
            ],
            [
              65.657864060000065,
              37.353182476000029
            ],
            [
              65.678276889000074,
              37.474781603000054
            ],
            [
              65.703792925000073,
              37.519318472000066
            ],
            [
              65.744618583000033,
              37.551692235000075
            ],
            [
              65.790547448000041,
              37.567873846000055
            ],
            [
              66.091636674000029,
              37.450477572000068
            ],
            [
              66.203907233000052,
              37.401845815000058
            ],
            [
              66.25493930500005,
              37.365351270000076
            ],
            [
              66.341693828000075,
              37.345068850000075
            ],
            [
              66.362008675000084,
              37.35226730200003
            ],
            [
              66.391272506000064,
              37.35226730200003
            ],
            [
              66.453980717000036,
              37.337311403000058
            ],
            [
              66.487425095000049,
              37.353928885000073
            ],
            [
              66.54177221100008,
              37.398777713000072
            ],
            [
              66.539681937000069,
              37.445259277000048
            ],
            [
              66.533411116000082,
              37.501662377000059
            ],
            [
              66.53132084300006,
              37.567964454000048
            ],
            [
              66.53132084300006,
              37.657378718000075
            ],
            [
              66.54177221100008,
              37.769821456000045
            ],
            [
              66.585667958000045,
              37.882093472000065
            ],
            [
              66.627473432000045,
              37.93167396900003
            ],
            [
              66.660133958000074,
              37.985751755000024
            ],
            [
              66.65686790500007,
              38.03207244500004
            ],
            [
              66.617675274000078,
              38.057793513000036
            ],
            [
              66.588280800000064,
              38.083505544000047
            ],
            [
              66.558886327000039,
              38.096358171000077
            ],
            [
              66.470702906000042,
              38.080934748000061
            ],
            [
              66.389051591000054,
              38.096358171000077
            ],
            [
              66.336794749000035,
              38.124625993000052
            ],
            [
              66.235547118000056,
              38.211930080000059
            ],
            [
              66.114703171000031,
              38.270929417000048
            ],
            [
              66.04938211800004,
              38.286312674000044
            ],
            [
              65.990593171000057,
              38.311944190000077
            ],
            [
              65.954666592000081,
              38.319631879000042
            ],
            [
              65.899143698000046,
              38.324756553000043
            ],
            [
              65.853418961000045,
              38.324756553000043
            ],
            [
              65.810960277000049,
              38.304255686000033
            ],
            [
              65.797896067000067,
              38.278621453000028
            ],
            [
              65.778299751000077,
              38.270929417000048
            ],
            [
              65.722776856000053,
              38.276057532000038
            ],
            [
              65.650923699000032,
              38.288876233000053
            ],
            [
              65.572538436000059,
              38.31450684400005
            ],
            [
              65.503951331000053,
              38.345251623000024
            ],
            [
              65.366777121000041,
              38.427173916000072
            ],
            [
              65.255731332000039,
              38.496223652000026
            ],
            [
              65.157749753000076,
              38.54477457400003
            ],
            [
              65.033639754000035,
              38.646879958000056
            ],
            [
              64.978116859000068,
              38.682582523000065
            ],
            [
              64.916061859000081,
              38.700427130000037
            ],
            [
              64.821346333000065,
              38.723363654000025
            ],
            [
              64.742961071000082,
              38.764121524000075
            ],
            [
              64.586190545000079,
              38.840479810000033
            ],
            [
              64.45554844000003,
              38.92692025000008
            ],
            [
              64.383695282000076,
              39.00564190800003
            ],
            [
              64.347768704000032,
              39.036091318000047
            ],
            [
              64.318374230000074,
              39.028480195000043
            ],
            [
              64.246521072000064,
              39.00564190800003
            ],
            [
              64.190998178000029,
              39.000565731000052
            ],
            [
              64.083218441000042,
              39.061455807000073
            ],
            [
              63.975438705000045,
              39.119759560000034
            ],
            [
              63.916649758000062,
              39.147626923000075
            ],
            [
              63.83173239000007,
              39.178015103000064
            ],
            [
              63.766411337000079,
              39.218512254000075
            ],
            [
              63.727218706000031,
              39.248869795000076
            ],
            [
              63.583512391000056,
              39.405507778000072
            ],
            [
              63.446338181000044,
              39.493777456000032
            ],
            [
              63.256907129000069,
              39.586969405000048
            ],
            [
              63.077274235000061,
              39.667466911000076
            ],
            [
              62.904173446000073,
              39.788037512000074
            ],
            [
              62.884577130000082,
              39.79305671000003
            ],
            [
              62.815990025000076,
              39.825672574000066
            ],
            [
              62.766999236000061,
              39.855765789000031
            ],
            [
              62.698412131000055,
              39.885845815000039
            ],
            [
              62.603696605000039,
              39.938454117000049
            ],
            [
              62.505715026000075,
              40.031046598000046
            ],
            [
              62.451106627000058,
              40.062649429000032
            ],
            [
              62.421842795000032,
              40.121815293000054
            ],
            [
              62.421842795000032,
              40.203283914000053
            ],
            [
              62.40094005800006,
              40.30538068900006
            ],
            [
              62.384217869000054,
              40.36433510300003
            ],
            [
              62.377947048000067,
              40.400956477000079
            ],
            [
              62.357044311000038,
              40.447102874000052
            ],
            [
              62.32987075300008,
              40.477319553000029
            ],
            [
              62.235808438000049,
              40.515468559000055
            ],
            [
              62.200273785000036,
              40.532946271000071
            ],
            [
              62.183551596000029,
              40.55041942500003
            ],
            [
              62.049896558000057,
              40.740665234000062
            ],
            [
              62.019277314000078,
              40.798638252000046
            ],
            [
              62.014174107000031,
              40.852700764000076
            ],
            [
              61.978451657000051,
              40.937567078000029
            ],
            [
              61.978451657000051,
              40.99151622200003
            ],
            [
              61.96824524200008,
              41.045421257000044
            ],
            [
              61.932522792000043,
              41.091590456000063
            ],
            [
              61.866181098000027,
              41.153098954000029
            ],
            [
              61.820252233000076,
              41.199192491000076
            ],
            [
              61.697775260000071,
              41.260600079000028
            ],
            [
              61.616123944000037,
              41.298950529000081
            ],
            [
              61.524266214000079,
              41.321949981000046
            ],
            [
              61.463027728000043,
              41.333446665000054
            ],
            [
              61.401789241000074,
              41.329614663000029
            ],
            [
              61.401789241000074,
              41.306617915000061
            ],
            [
              61.396686034000027,
              41.260600079000028
            ],
            [
              61.381376412000066,
              41.226065407000078
            ],
            [
              61.355860376000066,
              41.210710807000055
            ],
            [
              61.325241133000077,
              41.183831582000039
            ],
            [
              61.304828304000068,
              41.179990792000069
            ],
            [
              61.243589817000043,
              41.206871593000074
            ],
            [
              61.202764160000072,
              41.229903494000041
            ],
            [
              61.146628880000037,
              41.249090549000073
            ],
            [
              61.07008077200004,
              41.237578992000067
            ],
            [
              61.03946152900005,
              41.229903494000041
            ],
            [
              60.998635871000033,
              41.233741356000053
            ],
            [
              60.947603799000035,
              41.252927284000066
            ],
            [
              60.927190970000083,
              41.187672147000058
            ],
            [
              60.927190970000083,
              41.014623781000068
            ],
            [
              60.922087763000036,
              40.972253733000059
            ],
            [
              60.911881348000065,
              40.945276799000055
            ],
            [
              60.192329131000065,
              40.929856458000074
            ],
            [
              60.187225923000028,
              40.267274438000072
            ],
            [
              60.396457419000058,
              40.267274438000072
            ],
            [
              60.442386284000065,
              40.21663428800008
            ],
            [
              60.457695906000083,
              40.142553637000049
            ],
            [
              60.462799113000074,
              39.904169363000051
            ],
            [
              60.467902320000064,
              39.578473975000065
            ],
            [
              60.463819755000031,
              39.426481958000068
            ],
            [
              60.503624771000034,
              39.436730201000046
            ],
            [
              60.56996646500005,
              39.452493786000048
            ],
            [
              60.615895330000058,
              39.468253803000039
            ],
            [
              60.768991546000052,
              39.480071474000056
            ],
            [
              60.881262105000076,
              39.480071474000056
            ]
          ]
        ]
      }
    }
  ]
}
