{
  "type": "FeatureCollection",
  "name": "turkmenistan-mary",
  "properties": {
    "source": "geoBoundaries",
    "boundary_id": "TKM-ADM1-27578892",
    "represented_year": 2007,
    "license": "Public Domain",
    "srid": 4326
  },
  "features": [
    {
      "type": "Feature",
      "properties": {
        "slug": "turkmenistan-mary",
        "name_tm": "Mary",
        "name_en": "Mary",
        "iso_3166_2": "TM-M",
        "admin_level": 1,
        "source_shape_id": "27578892B74829978216420"
      },
      "geometry": {
        "type": "Polygon",
        "coordinates": [
          [
            [
              61.588978268681068,
              35.396763243107856
            ],
            [
              61.630412924000041,
              35.382761622000032
            ],
            [
              61.659807398000055,
              35.374772768000071
            ],
            [
              61.774119240000061,
              35.356129034000048
            ],
            [
              61.813311871000053,
              35.358792688000051
            ],
            [
              61.888431081000078,
              35.380098759000077
            ],
            [
              61.950486081000065,
              35.401399204000029
            ],
            [
              61.996210818000066,
              35.401399204000029
            ],
            [
              62.032137397000042,
              35.396074620000036
            ],
            [
              62.074596081000038,
              35.374772768000071
            ],
            [
              62.11378871200003,
              35.340145264000057
            ],
            [
              62.149715291000064,
              35.300172004000046
            ],
            [
              62.182375817000036,
              35.268179171000043
            ],
            [
              62.257495027000061,
              35.185472534000041
            ],
            [
              62.260761080000066,
              35.145422939000071
            ],
            [
              62.267293185000028,
              35.110697341000048
            ],
            [
              62.293421606000038,
              35.089320383000029
            ],
            [
              62.326082132000067,
              35.078629803000069
            ],
            [
              62.352210553000077,
              35.108025528000042
            ],
            [
              62.381605027000035,
              35.145422939000071
            ],
            [
              62.440393974000074,
              35.188141806000033
            ],
            [
              62.466522395000027,
              35.22016622600006
            ],
            [
              62.489384763000032,
              35.228170357000067
            ],
            [
              62.51172456300003,
              35.204048846000035
            ],
            [
              62.545168942000032,
              35.176716708000072
            ],
            [
              62.597425784000052,
              35.154502576000027
            ],
            [
              62.630870163000054,
              35.152793545000065
            ],
            [
              62.701939468000035,
              35.159629453000036
            ],
            [
              62.743744941000045,
              35.186967337000056
            ],
            [
              62.789730962000078,
              35.214296028000035
            ],
            [
              62.841987804000041,
              35.250150976000043
            ],
            [
              62.885883551000063,
              35.282577510000067
            ],
            [
              62.913057109000079,
              35.309873997000068
            ],
            [
              62.961133404000066,
              35.349096565000025
            ],
            [
              63.01548051900005,
              35.369552957000053
            ],
            [
              63.046834624000041,
              35.37296185200006
            ],
            [
              63.080279003000044,
              35.381483459000037
            ],
            [
              63.099091466000061,
              35.39170819900005
            ],
            [
              63.111633108000035,
              35.412153791000037
            ],
            [
              63.117903929000079,
              35.456434782000031
            ],
            [
              63.122084477000044,
              35.47005480200005
            ],
            [
              63.122084477000044,
              35.488778564000029
            ],
            [
              63.10954283500007,
              35.509199512000066
            ],
            [
              63.09700119300004,
              35.541522060000034
            ],
            [
              63.10954283500007,
              35.573831587000029
            ],
            [
              63.117903929000079,
              35.589131554000062
            ],
            [
              63.130445571000052,
              35.602729070000066
            ],
            [
              63.151348308000081,
              35.612925691000044
            ],
            [
              63.182702413000072,
              35.619722717000059
            ],
            [
              63.22032733900005,
              35.631616121000036
            ],
            [
              63.226598160000037,
              35.641809060000071
            ],
            [
              63.22032733900005,
              35.663889300000051
            ],
            [
              63.207785697000077,
              35.677474106000034
            ],
            [
              63.145077487000037,
              35.72839653300008
            ],
            [
              63.122084477000044,
              35.753845547000026
            ],
            [
              63.103272014000083,
              35.77759061900008
            ],
            [
              63.105362287000048,
              35.799633267000047
            ],
            [
              63.122920586000077,
              35.82594079100005
            ],
            [
              63.16974271600003,
              35.827025450000065
            ],
            [
              63.215227072000062,
              35.821602006000035
            ],
            [
              63.276764729000035,
              35.809669124000038
            ],
            [
              63.319573534000028,
              35.806414391000033
            ],
            [
              63.347666812000057,
              35.811838872000067
            ],
            [
              63.383786741000051,
              35.830279339000072
            ],
            [
              63.42124444500007,
              35.844377981000036
            ],
            [
              63.518902031000039,
              35.868231514000058
            ],
            [
              63.548333085000081,
              35.881239506000043
            ],
            [
              63.569737487000054,
              35.899663839000027
            ],
            [
              63.597830765000083,
              35.919167283000036
            ],
            [
              63.619235168000046,
              35.92566736200007
            ],
            [
              63.663381748000063,
              35.935416479000025
            ],
            [
              63.704852778000031,
              35.936499641000069
            ],
            [
              63.777092636000077,
              35.948413433000042
            ],
            [
              63.810503048000044,
              35.957197434000079
            ],
            [
              63.902360778000059,
              36.00675172900003
            ],
            [
              63.958496057000048,
              36.019135440000071
            ],
            [
              63.999321715000065,
              36.019135440000071
            ],
            [
              64.024837751000064,
              36.023262911000074
            ],
            [
              64.060560201000044,
              36.048023198000067
            ],
            [
              64.106489066000051,
              36.089273041000069
            ],
            [
              64.147314724000069,
              36.122257338000054
            ],
            [
              64.193243589000076,
              36.15110723500004
            ],
            [
              64.295307733000072,
              36.196421352000073
            ],
            [
              64.392268671000068,
              36.217010014000039
            ],
            [
              64.433094328000038,
              36.212892714000077
            ],
            [
              64.453507157000047,
              36.221127096000032
            ],
            [
              64.494332815000064,
              36.245825040000057
            ],
            [
              64.530055265000044,
              36.270515181000064
            ],
            [
              64.550468094000053,
              36.303423228000042
            ],
            [
              64.59639695900006,
              36.360978909000039
            ],
            [
              64.63211941000003,
              36.426704746000041
            ],
            [
              64.641713439000057,
              36.511737086000039
            ],
            [
              64.628649229000075,
              36.558973395000066
            ],
            [
              64.615585018000047,
              36.593070559000068
            ],
            [
              64.618851071000051,
              36.621910243000059
            ],
            [
              64.628649229000075,
              36.653359415000068
            ],
            [
              64.654777650000028,
              36.705746168000076
            ],
            [
              64.726630807000049,
              36.823485858000026
            ],
            [
              64.749493176000044,
              36.877062873000057
            ],
            [
              64.530055265000044,
              36.877062873000057
            ],
            [
              64.484126400000036,
              36.864815342000043
            ],
            [
              64.310617355000034,
              36.856649231000063
            ],
            [
              63.560445894000054,
              36.856649231000063
            ],
            [
              63.534929858000055,
              37.38562821000005
            ],
            [
              63.774780597000074,
              37.664889688000073
            ],
            [
              63.269563083000037,
              38.051685577000057
            ],
            [
              63.101157245000081,
              38.115954075000047
            ],
            [
              62.937854614000059,
              38.156093192000071
            ],
            [
              62.825584055000036,
              38.192199518000052
            ],
            [
              62.489384763000032,
              38.439965891000043
            ],
            [
              62.094192396000039,
              38.725911702000076
            ],
            [
              61.92109160800004,
              38.878628262000063
            ],
            [
              61.832908187000044,
              38.962482799000043
            ],
            [
              61.73492660800008,
              39.046238207000044
            ],
            [
              61.643477135000069,
              39.102020042000049
            ],
            [
              61.552027662000057,
              39.160290260000068
            ],
            [
              61.434449767000046,
              39.248869795000076
            ],
            [
              61.258082926000043,
              39.413078134000045
            ],
            [
              61.202560031000075,
              39.455961296000055
            ],
            [
              61.176431610000066,
              39.468568967000067
            ],
            [
              61.02945924200003,
              39.463526173000048
            ],
            [
              60.990266611000038,
              39.468568967000067
            ],
            [
              60.931477664000056,
              39.486215869000034
            ],
            [
              60.921679506000032,
              39.486215869000034
            ],
            [
              60.881262105000076,
              39.480071474000056
            ],
            [
              60.881262105000076,
              39.346020361000058
            ],
            [
              60.56996646500005,
              39.334179949000031
            ],
            [
              60.56996646500005,
              38.938353015000075
            ],
            [
              60.440681405000078,
              38.936554382000054
            ],
            [
              60.44335695500007,
              38.736482075000026
            ],
            [
              60.352471856000079,
              38.739873395000075
            ],
            [
              60.348291308000057,
              38.726828978000071
            ],
            [
              60.354562129000044,
              38.700732998000035
            ],
            [
              60.377555140000027,
              38.672995583000045
            ],
            [
              60.390096782000057,
              38.651777363000065
            ],
            [
              60.398457876000066,
              38.628919943000028
            ],
            [
              60.400548150000077,
              38.596253841000078
            ],
            [
              60.398457876000066,
              38.568475961000047
            ],
            [
              60.410999519000029,
              38.542322260000049
            ],
            [
              60.461166087000038,
              38.491622393000057
            ],
            [
              60.492520192000029,
              38.447435356000028
            ],
            [
              60.511332655000047,
              38.426150460000031
            ],
            [
              60.528054844000053,
              38.39503047900007
            ],
            [
              60.536415939000051,
              38.363897098000052
            ],
            [
              60.54686730700007,
              38.334389958000031
            ],
            [
              60.563589497000066,
              38.308151297000052
            ],
            [
              60.627734770000075,
              38.242718317000026
            ],
            [
              60.709386086000052,
              38.173426461000076
            ],
            [
              60.79103740100004,
              38.114348051000036
            ],
            [
              60.872688717000074,
              38.050078141000029
            ],
            [
              60.918413453000028,
              38.024354362000054
            ],
            [
              60.983734506000076,
              37.990899944000034
            ],
            [
              61.016395032000048,
              37.960005394000063
            ],
            [
              61.016395032000048,
              37.854350938000039
            ],
            [
              61.000064769000062,
              37.831138195000051
            ],
            [
              60.957606085000066,
              37.813078788000041
            ],
            [
              60.938009769000075,
              37.797595780000051
            ],
            [
              60.931477664000056,
              37.774365182000054
            ],
            [
              60.957606085000066,
              37.709797438000066
            ],
            [
              60.980468453000071,
              37.673614904000033
            ],
            [
              60.990266611000038,
              37.637414719000049
            ],
            [
              60.964138190000028,
              37.614133853000055
            ],
            [
              60.843294243000059,
              37.601196887000071
            ],
            [
              60.823697927000069,
              37.567550249000078
            ],
            [
              60.846560296000064,
              37.523527856000044
            ],
            [
              60.895551085000079,
              37.414655242000038
            ],
            [
              61.02945924200003,
              37.206840533000047
            ],
            [
              61.147037137000041,
              37.055815966000068
            ],
            [
              61.218890294000062,
              36.969753734000051
            ],
            [
              61.284211347000053,
              36.90971335200004
            ],
            [
              61.326670031000049,
              36.865305281000076
            ],
            [
              61.480174504000047,
              36.695271672000047
            ],
            [
              61.525899241000047,
              36.635015625000051
            ],
            [
              61.533476483000072,
              36.033247196000048
            ],
            [
              61.541837577000081,
              35.994359467000038
            ],
            [
              61.552288946000033,
              35.968987570000024
            ],
            [
              61.579462504000048,
              35.91821931000004
            ],
            [
              61.602455514000042,
              35.902982473000066
            ],
            [
              61.677705366000055,
              35.880968528000039
            ],
            [
              61.686066461000053,
              35.836922281000057
            ],
            [
              61.675615093000033,
              35.823364666000032
            ],
            [
              61.654712356000061,
              35.816584990000024
            ],
            [
              61.625448524000035,
              35.799633267000047
            ],
            [
              61.62335825100007,
              35.770807036000065
            ],
            [
              61.590607908000038,
              35.750386549000041
            ],
            [
              61.468130935000033,
              35.742102898000041
            ],
            [
              61.401789241000074,
              35.729675805000056
            ],
            [
              61.411995656000045,
              35.704815801000052
            ],
            [
              61.452821313000072,
              35.684093208000036
            ],
            [
              61.488543764000042,
              35.663365231000057
            ],
            [
              61.534472629000049,
              35.655072532000077
            ],
            [
              61.605917530000056,
              35.646778973000039
            ],
            [
              61.642170714000031,
              35.59763027200006
            ],
            [
              61.648441535000075,
              35.582331930000066
            ],
            [
              61.646351261000063,
              35.561929593000059
            ],
            [
              61.631719345000079,
              35.553427085000067
            ],
            [
              61.608726335000028,
              35.534718395000027
            ],
            [
              61.602455514000042,
              35.507497965000027
            ],
            [
              61.600365240000031,
              35.427484582000034
            ],
            [
              61.596184693000055,
              35.407042879000073
            ],
            [
              61.588978268681068,
              35.396763243107856
            ]
          ]
        ]
      }
    }
  ]
}
