{
  "type": "FeatureCollection",
  "generator": "overpass-turbo",
  "copyright": "The data included in this document is from www.openstreetmap.org. The data is made available under ODbL.",
  "timestamp": "2026-09-04T05:46:51Z",
  "features": [
    {
      "type": "Feature",
      "properties": {
        "@id": "relation/3059054",
        "aerodrome:type": "public",
        "aeroway": "aerodrome",
        "alt_name": "Turkmenbashi International Airport",
        "ele": "86",
        "iata": "KRW",
        "icao": "UTAK",
        "name": "Türkmenbaşy Halkara Howa Menzili",
        "name:en": "Turkmenbashy International Airport",
        "name:ru": "Международный аэропорт Туркменбаши",
        "name:tk": "Türkmenbaşy Halkara Howa Menzili",
        "old_name": "Krasnovodsk Airport",
        "old_name:ru": "Аэропорт Красноводск",
        "type": "multipolygon",
        "wikidata": "Q856152",
        "wikipedia": "en:Turkmenbashi International Airport"
      },
      "geometry": {
        "type": "Polygon",
        "coordinates": [
          [
            [
              52.9944364,
              40.0416104
            ],
            [
              52.9944496,
              40.0415701
            ],
            [
              52.9944673,
              40.0415546
            ],
            [
              52.9944997,
              40.0415446
            ],
            [
              52.9945459,
              40.0415651
            ],
            [
              52.9945817,
              40.041581
            ],
            [
              52.9946374,
              40.0415423
            ],
            [
              52.9946491,
              40.0415064
            ],
            [
              52.9946592,
              40.0414618
            ],
            [
              52.9944437,
              40.0414105
            ],
            [
              52.9944784,
              40.0412808
            ],
            [
              52.9945459,
              40.0410165
            ],
            [
              52.9946857,
              40.0410348
            ],
            [
              52.9947358,
              40.0410467
            ],
            [
              52.9948411,
              40.0405287
            ],
            [
              52.9955071,
              40.0406098
            ],
            [
              52.9956087,
              40.0401911
            ],
            [
              52.995948,
              40.0402692
            ],
            [
              52.9960096,
              40.040178
            ],
            [
              52.9961705,
              40.0397669
            ],
            [
              52.996284,
              40.039482
            ],
            [
              52.9962872,
              40.0394309
            ],
            [
              52.9964221,
              40.0389557
            ],
            [
              52.9966783,
              40.0389652
            ],
            [
              52.9972301,
              40.0385313
            ],
            [
              52.9973052,
              40.0385244
            ],
            [
              52.9987657,
              40.0385627
            ],
            [
              52.9990205,
              40.0385504
            ],
            [
              52.9990755,
              40.0385134
            ],
            [
              53.0003596,
              40.0385956
            ],
            [
              53.0037409,
              40.0387609
            ],
            [
              53.0058119,
              40.0393841
            ],
            [
              53.0071006,
              40.0397952
            ],
            [
              53.0097869,
              40.0411439
            ],
            [
              53.0126474,
              40.0425685
            ],
            [
              53.0133465,
              40.0425235
            ],
            [
              53.014446,
              40.0428046
            ],
            [
              53.0145932,
              40.0435717
            ],
            [
              53.0174053,
              40.0453759
            ],
            [
              53.0162859,
              40.049464
            ],
            [
              53.0149314,
              40.0534943
            ],
            [
              53.0140918,
              40.0560627
            ],
            [
              53.0104172,
              40.0679711
            ],
            [
              53.0081829,
              40.0752474
            ],
            [
              53.0070832,
              40.0788677
            ],
            [
              53.0065508,
              40.0806112
            ],
            [
              53.0060012,
              40.0823773
            ],
            [
              53.0053747,
              40.0844457
            ],
            [
              53.0046397,
              40.0868836
            ],
            [
              53.0044359,
              40.0874664
            ],
            [
              53.004232,
              40.0881107
            ],
            [
              53.0038994,
              40.0893132
            ],
            [
              53.0031923,
              40.0915323
            ],
            [
              52.9976606,
              40.0905772
            ],
            [
              52.99222,
              40.0896048
            ],
            [
              52.9926945,
              40.0881954
            ],
            [
              52.9928729,
              40.0874756
            ],
            [
              52.9932806,
              40.0863008
            ],
            [
              52.993813,
              40.0846632
            ],
            [
              52.9941067,
              40.0835735
            ],
            [
              52.9941938,
              40.0833362
            ],
            [
              52.9946941,
              40.0815685
            ],
            [
              52.9910195,
              40.0813756
            ],
            [
              52.9902846,
              40.0781125
            ],
            [
              52.9900539,
              40.0768277
            ],
            [
              52.9901397,
              40.0767538
            ],
            [
              52.9868768,
              40.0730943
            ],
            [
              52.9854593,
              40.0715385
            ],
            [
              52.9847243,
              40.0706477
            ],
            [
              52.9835415,
              40.0691545
            ],
            [
              52.9829581,
              40.0684237
            ],
            [
              52.9822943,
              40.0677104
            ],
            [
              52.9821575,
              40.0633176
            ],
            [
              52.9819509,
              40.0627531
            ],
            [
              52.9812455,
              40.0596061
            ],
            [
              52.980811,
              40.0572904
            ],
            [
              52.9798402,
              40.05729
            ],
            [
              52.9798462,
              40.0561786
            ],
            [
              52.9795614,
              40.054629
            ],
            [
              52.9792441,
              40.0526297
            ],
            [
              52.9790448,
              40.0520292
            ],
            [
              52.979043,
              40.051543
            ],
            [
              52.9796268,
              40.0514474
            ],
            [
              52.9811304,
              40.051216
            ],
            [
              52.9814816,
              40.0512435
            ],
            [
              52.982913,
              40.0504724
            ],
            [
              52.9861399,
              40.0486591
            ],
            [
              52.988981,
              40.0470843
            ],
            [
              52.9902902,
              40.0463481
            ],
            [
              52.9911442,
              40.0459447
            ],
            [
              52.9914044,
              40.0461778
            ],
            [
              52.9918054,
              40.046493
            ],
            [
              52.9919811,
              40.0465412
            ],
            [
              52.9920213,
              40.0465792
            ],
            [
              52.9920562,
              40.0465751
            ],
            [
              52.9922117,
              40.0467152
            ],
            [
              52.9925388,
              40.0467809
            ],
            [
              52.9926516,
              40.0467599
            ],
            [
              52.9927522,
              40.0466562
            ],
            [
              52.9928635,
              40.0465217
            ],
            [
              52.9929909,
              40.046457
            ],
            [
              52.9930808,
              40.0464324
            ],
            [
              52.9935166,
              40.0464663
            ],
            [
              52.9935195,
              40.0464514
            ],
            [
              52.9936567,
              40.0464619
            ],
            [
              52.9937433,
              40.0460474
            ],
            [
              52.9937913,
              40.0457407
            ],
            [
              52.9935443,
              40.0457146
            ],
            [
              52.9935833,
              40.0454987
            ],
            [
              52.993621,
              40.0452898
            ],
            [
              52.9938354,
              40.0453125
            ],
            [
              52.993911,
              40.0449402
            ],
            [
              52.9939198,
              40.0448273
            ],
            [
              52.9939582,
              40.0446107
            ],
            [
              52.9938373,
              40.0445984
            ],
            [
              52.9938252,
              40.0447243
            ],
            [
              52.9934796,
              40.0446777
            ],
            [
              52.9934994,
              40.0445476
            ],
            [
              52.9932191,
              40.0445068
            ],
            [
              52.9935844,
              40.0428799
            ],
            [
              52.9938722,
              40.0429235
            ],
            [
              52.9938973,
              40.0428779
            ],
            [
              52.9939084,
              40.042849
            ],
            [
              52.993924,
              40.042796
            ],
            [
              52.9939444,
              40.0427477
            ],
            [
              52.994028,
              40.0424094
            ],
            [
              52.9941393,
              40.0423149
            ],
            [
              52.9941853,
              40.042131
            ],
            [
              52.9941104,
              40.0421194
            ],
            [
              52.9942333,
              40.0415835
            ],
            [
              52.9944364,
              40.0416104
            ]
          ]
        ]
      },
      "id": "relation/3059054"
    },
    {
      "type": "Feature",
      "properties": {
        "@id": "way/102927099",
        "aeroway": "aerodrome",
        "alt_name:en": "Ashgabat Bezmein Airfield",
        "icao": "UT1G",
        "landuse": "military",
        "military": "airfield",
        "name": "Ak Depe Howa Menzili",
        "name:en": "Ak Depe Airfield",
        "name:tk": "Ak Depe Howa Menzili",
        "wikidata": "Q12691722"
      },
      "geometry": {
        "type": "Polygon",
        "coordinates": [
          [
            [
              58.1774606,
              38.0173559
            ],
            [
              58.178009,
              38.014625
            ],
            [
              58.1722865,
              38.008183
            ],
            [
              58.1718353,
              38.0063128
            ],
            [
              58.1751475,
              38.0059296
            ],
            [
              58.1755094,
              38.0077316
            ],
            [
              58.1804698,
              38.0075923
            ],
            [
              58.1823429,
              38.0077668
            ],
            [
              58.1853549,
              38.0079942
            ],
            [
              58.1853418,
              38.0033126
            ],
            [
              58.1854976,
              38.0000798
            ],
            [
              58.1904852,
              38.0002185
            ],
            [
              58.1938416,
              37.9983852
            ],
            [
              58.1945991,
              37.9957807
            ],
            [
              58.1998534,
              37.9970849
            ],
            [
              58.1999692,
              37.9972294
            ],
            [
              58.2014842,
              37.9974955
            ],
            [
              58.2027956,
              37.9978487
            ],
            [
              58.2051829,
              37.9987091
            ],
            [
              58.2061865,
              37.9991159
            ],
            [
              58.2068425,
              38.0001385
            ],
            [
              58.2054672,
              38.0010579
            ],
            [
              58.2069209,
              38.0022711
            ],
            [
              58.2081957,
              38.001335
            ],
            [
              58.2116287,
              38.0059327
            ],
            [
              58.2124972,
              38.0079635
            ],
            [
              58.2124295,
              38.0087111
            ],
            [
              58.2124158,
              38.0088619
            ],
            [
              58.2115152,
              38.0096679
            ],
            [
              58.2066204,
              38.009905
            ],
            [
              58.1940639,
              38.0230069
            ],
            [
              58.1842205,
              38.0300247
            ],
            [
              58.184104,
              38.0296752
            ],
            [
              58.1818738,
              38.0229828
            ],
            [
              58.1804027,
              38.021359
            ],
            [
              58.1811423,
              38.0176366
            ],
            [
              58.1807357,
              38.0176255
            ],
            [
              58.1792351,
              38.017556
            ],
            [
              58.1774606,
              38.0173559
            ]
          ]
        ]
      },
      "id": "way/102927099"
    },
    {
      "type": "Feature",
      "properties": {
        "@id": "way/188749757",
        "aeroway": "aerodrome",
        "ele": "220",
        "email": "mary.airport@online.tm",
        "iata": "MYP",
        "icao": "UTAM",
        "name": "Mary Halkara Howa Menzili",
        "name:en": "Mary International Airport",
        "name:fa": "فرودگاه ماری",
        "name:ru": "Международный Аэропорт Мары",
        "name:tk": "Mary Halkara Howa Menzili",
        "phone": "(+993-522) 6-70-02",
        "ref": "MYP",
        "source_ref": "https://skyvector.com/airport/UTAM/Mary-Airport",
        "website": "https://maryairport.gov.tm/",
        "wikidata": "Q651297",
        "wikipedia": "ru:Мары (аэропорт)",
        "wikipedia:en": "Mary International Airport"
      },
      "geometry": {
        "type": "Polygon",
        "coordinates": [
          [
            [
              61.8915492,
              37.6466597
            ],
            [
              61.8929949,
              37.6355559
            ],
            [
              61.8940182,
              37.6325428
            ],
            [
              61.893762,
              37.6275945
            ],
            [
              61.8936709,
              37.627331
            ],
            [
              61.8939015,
              37.6223791
            ],
            [
              61.8929842,
              37.6219797
            ],
            [
              61.8923941,
              37.6217736
            ],
            [
              61.8914327,
              37.6207869
            ],
            [
              61.891167,
              37.6205839
            ],
            [
              61.8902162,
              37.6199381
            ],
            [
              61.8887302,
              37.6190543
            ],
            [
              61.8882206,
              37.61881
            ],
            [
              61.8869466,
              37.618247
            ],
            [
              61.8863645,
              37.6179113
            ],
            [
              61.8860232,
              37.6178466
            ],
            [
              61.8850416,
              37.6182273
            ],
            [
              61.8843877,
              37.617799
            ],
            [
              61.8827744,
              37.6172849
            ],
            [
              61.881846,
              37.6166651
            ],
            [
              61.8816465,
              37.6163136
            ],
            [
              61.8813728,
              37.6160015
            ],
            [
              61.8808392,
              37.6155827
            ],
            [
              61.8805298,
              37.6152385
            ],
            [
              61.8812507,
              37.6147018
            ],
            [
              61.8813031,
              37.6146081
            ],
            [
              61.8814051,
              37.6143738
            ],
            [
              61.8815339,
              37.6134092
            ],
            [
              61.8820998,
              37.6128801
            ],
            [
              61.8828884,
              37.6129014
            ],
            [
              61.8842799,
              37.6123297
            ],
            [
              61.8848243,
              37.6121027
            ],
            [
              61.8868473,
              37.6131797
            ],
            [
              61.887491,
              37.6129747
            ],
            [
              61.8877298,
              37.6130182
            ],
            [
              61.8882233,
              37.6128079
            ],
            [
              61.8884861,
              37.6122087
            ],
            [
              61.888403,
              37.6116754
            ],
            [
              61.8892828,
              37.6101434
            ],
            [
              61.8893015,
              37.6093955
            ],
            [
              61.8894893,
              37.6086242
            ],
            [
              61.8898809,
              37.6078614
            ],
            [
              61.8899077,
              37.607532
            ],
            [
              61.8900284,
              37.6073046
            ],
            [
              61.8903503,
              37.6069838
            ],
            [
              61.8908787,
              37.6071793
            ],
            [
              61.8908331,
              37.6077657
            ],
            [
              61.8914929,
              37.6079633
            ],
            [
              61.8934736,
              37.6048195
            ],
            [
              61.8949007,
              37.6053334
            ],
            [
              61.8949422,
              37.6011741
            ],
            [
              61.895083,
              37.6012113
            ],
            [
              61.8956798,
              37.6013611
            ],
            [
              61.9009759,
              37.6026542
            ],
            [
              61.9012307,
              37.6027031
            ],
            [
              61.9012803,
              37.6026393
            ],
            [
              61.9013607,
              37.6026616
            ],
            [
              61.9014506,
              37.6028178
            ],
            [
              61.9021647,
              37.603
            ],
            [
              61.9022117,
              37.6030022
            ],
            [
              61.9022921,
              37.6029899
            ],
            [
              61.9025946,
              37.6030505
            ],
            [
              61.9025275,
              37.6030834
            ],
            [
              61.9024886,
              37.6031174
            ],
            [
              61.9024605,
              37.6031631
            ],
            [
              61.902439,
              37.6032152
            ],
            [
              61.9023116,
              37.6058905
            ],
            [
              61.9029875,
              37.6062634
            ],
            [
              61.9030143,
              37.6063261
            ],
            [
              61.9029996,
              37.607549
            ],
            [
              61.9029728,
              37.6076798
            ],
            [
              61.9029205,
              37.6077891
            ],
            [
              61.902808,
              37.6078966
            ],
            [
              61.902671,
              37.6079591
            ],
            [
              61.9025356,
              37.6079793
            ],
            [
              61.9025356,
              37.6080802
            ],
            [
              61.902848,
              37.6081004
            ],
            [
              61.9030445,
              37.6082274
            ],
            [
              61.9029754,
              37.6082932
            ],
            [
              61.9054189,
              37.6100499
            ],
            [
              61.9054833,
              37.611678
            ],
            [
              61.9053492,
              37.6119511
            ],
            [
              61.9054095,
              37.6137056
            ],
            [
              61.9039705,
              37.6172973
            ],
            [
              61.9038901,
              37.6179814
            ],
            [
              61.9006714,
              37.6235168
            ],
            [
              61.8998292,
              37.6290623
            ],
            [
              61.9019213,
              37.6320872
            ],
            [
              61.8986598,
              37.6376056
            ],
            [
              61.897611,
              37.6425034
            ],
            [
              61.8972087,
              37.6443363
            ],
            [
              61.8973348,
              37.6460141
            ],
            [
              61.8950039,
              37.6470122
            ],
            [
              61.8915492,
              37.6466597
            ]
          ]
        ]
      },
      "id": "way/188749757"
    },
    {
      "type": "Feature",
      "properties": {
        "@id": "way/228470657",
        "aeroway": "aerodrome",
        "alt_name:en": "Gazojak Airport",
        "icao": "UT1E",
        "name": "Gazojak Airport",
        "name:en": "Pitnyak Airport",
        "name:ru": "\"Газаджак\" аэропорт",
        "old_name": "Pitnyak Airport",
        "source": "ourairports.com;aerial imagery",
        "wikidata": "Q11824676"
      },
      "geometry": {
        "type": "Polygon",
        "coordinates": [
          [
            [
              61.4097885,
              41.1255473
            ],
            [
              61.4096831,
              41.1250142
            ],
            [
              61.4095819,
              41.1250227
            ],
            [
              61.409593,
              41.1249662
            ],
            [
              61.4117226,
              41.1140247
            ],
            [
              61.4184176,
              41.1138336
            ],
            [
              61.4184342,
              41.1156713
            ],
            [
              61.4159794,
              41.1160256
            ],
            [
              61.4165478,
              41.120199
            ],
            [
              61.4185388,
              41.1350557
            ],
            [
              61.4150662,
              41.1353097
            ],
            [
              61.4136564,
              41.125663
            ],
            [
              61.4110923,
              41.1259201
            ],
            [
              61.4110437,
              41.1256058
            ],
            [
              61.4100399,
              41.1256367
            ],
            [
              61.4098725,
              41.1256316
            ],
            [
              61.4097885,
              41.1255473
            ]
          ]
        ]
      },
      "id": "way/228470657"
    },
    {
      "type": "Feature",
      "properties": {
        "@id": "way/425942949",
        "addr:city": "Ashgabat",
        "aerodrome": "international",
        "aerodrome:type": "public",
        "aeroway": "aerodrome",
        "alt_name:en": "Ashgabat International Airport",
        "contact:email": "ashgabat.airport@online.tm",
        "contact:fax": "+99312 234817",
        "contact:phone": "+99312 234923",
        "contact:website": "https://ashgabatairport.gov.tm",
        "ele": "211,22",
        "iata": "ASB",
        "icao": "UTAA",
        "name": "Aşgabat Halkara Howa Menzili",
        "name:de": "Flughafen Aşgabat",
        "name:en": "Ashgabat International Airport",
        "name:fa": "فرودگاه عشق‌آباد",
        "name:ja": "アシガバート空港",
        "name:ml": "അഷ്ഗാബാദ് അന്താരാഷ്ട്ര വിമാനത്താവളം",
        "name:ru": "Международный аэропорт Ашхабад",
        "name:simple": "Ashgabat Airport",
        "name:tk": "Aşgabat Halkara Howa Menzili",
        "old_name": "Aşgabadyň Saparmyrat Türkmenbaşy adyndaky Halkara howa menzili",
        "old_name:ru": "Международный аэропорт Ашхабад им. Сапармурата Туркменбаши",
        "wikidata": "Q1148527",
        "wikipedia": "en:Ashgabat International Airport"
      },
      "geometry": {
        "type": "Polygon",
        "coordinates": [
          [
            [
              58.3777742,
              37.9771231
            ],
            [
              58.3769876,
              37.9774715
            ],
            [
              58.3768219,
              37.9772606
            ],
            [
              58.3759403,
              37.9776579
            ],
            [
              58.3748111,
              37.9781579
            ],
            [
              58.372826,
              37.9790425
            ],
            [
              58.3725802,
              37.9797101
            ],
            [
              58.3726001,
              37.9799093
            ],
            [
              58.3726145,
              37.9798807
            ],
            [
              58.3726292,
              37.9798516
            ],
            [
              58.3726601,
              37.9797904
            ],
            [
              58.3727289,
              37.9798648
            ],
            [
              58.3728086,
              37.9799509
            ],
            [
              58.3728619,
              37.9800531
            ],
            [
              58.3729712,
              37.9802508
            ],
            [
              58.3730563,
              37.9804353
            ],
            [
              58.3732589,
              37.9805358
            ],
            [
              58.3734105,
              37.9806652
            ],
            [
              58.3734936,
              37.9807816
            ],
            [
              58.3735621,
              37.9809675
            ],
            [
              58.3735942,
              37.9810177
            ],
            [
              58.3736437,
              37.9810563
            ],
            [
              58.3736869,
              37.9810769
            ],
            [
              58.3738182,
              37.9810769
            ],
            [
              58.3738698,
              37.9810753
            ],
            [
              58.3739112,
              37.9810808
            ],
            [
              58.3739321,
              37.981089
            ],
            [
              58.3739402,
              37.9811139
            ],
            [
              58.3739201,
              37.9811477
            ],
            [
              58.3738967,
              37.9811845
            ],
            [
              58.3738582,
              37.9812275
            ],
            [
              58.3738451,
              37.9812855
            ],
            [
              58.3738403,
              37.9813332
            ],
            [
              58.3738568,
              37.981365
            ],
            [
              58.3738738,
              37.9814018
            ],
            [
              58.3738992,
              37.9814336
            ],
            [
              58.3739463,
              37.9814732
            ],
            [
              58.374001,
              37.9815152
            ],
            [
              58.3740068,
              37.9815197
            ],
            [
              58.3740429,
              37.9815562
            ],
            [
              58.3740788,
              37.9816027
            ],
            [
              58.3741186,
              37.9816477
            ],
            [
              58.3741424,
              37.9816876
            ],
            [
              58.3741642,
              37.9817317
            ],
            [
              58.3741783,
              37.9817699
            ],
            [
              58.374197,
              37.9818137
            ],
            [
              58.3742084,
              37.981875
            ],
            [
              58.3742178,
              37.9819268
            ],
            [
              58.3742101,
              37.9819695
            ],
            [
              58.3742018,
              37.9820417
            ],
            [
              58.3742352,
              37.9820758
            ],
            [
              58.3744391,
              37.9822904
            ],
            [
              58.374587,
              37.9824648
            ],
            [
              58.374675,
              37.9825837
            ],
            [
              58.3746835,
              37.9826059
            ],
            [
              58.3746849,
              37.9826303
            ],
            [
              58.3746781,
              37.9826368
            ],
            [
              58.3746602,
              37.9826357
            ],
            [
              58.374728,
              37.9827499
            ],
            [
              58.375534,
              37.9829127
            ],
            [
              58.3803208,
              37.9807747
            ],
            [
              58.3792278,
              37.9791882
            ],
            [
              58.3884676,
              37.9750838
            ],
            [
              58.3887917,
              37.9752852
            ],
            [
              58.3890764,
              37.9754633
            ],
            [
              58.3896031,
              37.9756544
            ],
            [
              58.3900566,
              37.9757406
            ],
            [
              58.3904783,
              37.9757573
            ],
            [
              58.3909227,
              37.9757252
            ],
            [
              58.3912755,
              37.9756455
            ],
            [
              58.3915277,
              37.975553
            ],
            [
              58.3916599,
              37.975503
            ],
            [
              58.3922849,
              37.9759791
            ],
            [
              58.3923349,
              37.9760196
            ],
            [
              58.3923088,
              37.9761864
            ],
            [
              58.3923281,
              37.9778769
            ],
            [
              58.392262,
              37.9783285
            ],
            [
              58.3918588,
              37.9786821
            ],
            [
              58.3916109,
              37.9788087
            ],
            [
              58.3900581,
              37.9797985
            ],
            [
              58.3897631,
              37.9799317
            ],
            [
              58.3887237,
              37.9803937
            ],
            [
              58.3888297,
              37.9805544
            ],
            [
              58.3885092,
              37.98077
            ],
            [
              58.3877085,
              37.9812626
            ],
            [
              58.3863299,
              37.9821336
            ],
            [
              58.3855118,
              37.9826484
            ],
            [
              58.384691,
              37.9831653
            ],
            [
              58.3828269,
              37.9843429
            ],
            [
              58.3817017,
              37.9850553
            ],
            [
              58.3810258,
              37.9854792
            ],
            [
              58.3800226,
              37.9861197
            ],
            [
              58.3799489,
              37.9861673
            ],
            [
              58.3790772,
              37.9865446
            ],
            [
              58.3783892,
              37.9868512
            ],
            [
              58.3771554,
              37.9873997
            ],
            [
              58.3765492,
              37.9876756
            ],
            [
              58.3754173,
              37.9881819
            ],
            [
              58.3739716,
              37.9888277
            ],
            [
              58.3718392,
              37.9897705
            ],
            [
              58.3654266,
              37.9926125
            ],
            [
              58.3584013,
              37.995816
            ],
            [
              58.353906,
              37.997786
            ],
            [
              58.3498183,
              37.9995911
            ],
            [
              58.3506417,
              38.0007768
            ],
            [
              58.3508939,
              38.0006732
            ],
            [
              58.3511218,
              38.001041
            ],
            [
              58.3505478,
              38.0013073
            ],
            [
              58.3502904,
              38.000948
            ],
            [
              58.3504593,
              38.0008677
            ],
            [
              58.3496351,
              37.9996826
            ],
            [
              58.3464052,
              38.0011054
            ],
            [
              58.3449259,
              38.0017607
            ],
            [
              58.3442983,
              38.0020375
            ],
            [
              58.3420922,
              38.0030119
            ],
            [
              58.3411132,
              38.0034557
            ],
            [
              58.3404158,
              38.0037727
            ],
            [
              58.3347751,
              38.0062793
            ],
            [
              58.332443,
              38.0029993
            ],
            [
              58.3374614,
              37.9986143
            ],
            [
              58.3397179,
              37.9966317
            ],
            [
              58.3393592,
              37.9961459
            ],
            [
              58.3389641,
              37.995576
            ],
            [
              58.3389366,
              37.9955402
            ],
            [
              58.3389984,
              37.99551
            ],
            [
              58.3389385,
              37.995423
            ],
            [
              58.338855,
              37.9953019
            ],
            [
              58.3388087,
              37.9952347
            ],
            [
              58.3387468,
              37.9952612
            ],
            [
              58.3385545,
              37.9949861
            ],
            [
              58.338089,
              37.9943269
            ],
            [
              58.3379549,
              37.9941567
            ],
            [
              58.3379254,
              37.9941166
            ],
            [
              58.3276892,
              37.9956666
            ],
            [
              58.3251464,
              37.9920576
            ],
            [
              58.3360618,
              37.9871609
            ],
            [
              58.3383577,
              37.9857741
            ],
            [
              58.3404391,
              37.9844719
            ],
            [
              58.3448398,
              37.9817088
            ],
            [
              58.343886,
              37.9807661
            ],
            [
              58.3442961,
              37.980509
            ],
            [
              58.3433053,
              37.9795367
            ],
            [
              58.346024,
              37.9778313
            ],
            [
              58.3470532,
              37.978849
            ],
            [
              58.3470723,
              37.9788365
            ],
            [
              58.3470936,
              37.9788578
            ],
            [
              58.3471057,
              37.9788496
            ],
            [
              58.3471511,
              37.9788948
            ],
            [
              58.3471391,
              37.9789028
            ],
            [
              58.3471623,
              37.9789262
            ],
            [
              58.347116,
              37.9789558
            ],
            [
              58.347172,
              37.9790118
            ],
            [
              58.3471772,
              37.9790096
            ],
            [
              58.3472036,
              37.9790349
            ],
            [
              58.3472263,
              37.9790197
            ],
            [
              58.347971,
              37.9797541
            ],
            [
              58.3522537,
              37.9770564
            ],
            [
              58.3535077,
              37.9762741
            ],
            [
              58.3546583,
              37.9755531
            ],
            [
              58.3556226,
              37.9749474
            ],
            [
              58.3590061,
              37.972864
            ],
            [
              58.3575386,
              37.9709587
            ],
            [
              58.3601385,
              37.9692004
            ],
            [
              58.3661616,
              37.9654272
            ],
            [
              58.3662502,
              37.9655115
            ],
            [
              58.3666357,
              37.9652446
            ],
            [
              58.3674786,
              37.9655002
            ],
            [
              58.3688865,
              37.9645997
            ],
            [
              58.36864,
              37.9639638
            ],
            [
              58.3686266,
              37.9637768
            ],
            [
              58.3684187,
              37.9632189
            ],
            [
              58.3685535,
              37.9631268
            ],
            [
              58.3680074,
              37.9624918
            ],
            [
              58.3709727,
              37.9606001
            ],
            [
              58.3716542,
              37.9612665
            ],
            [
              58.3721344,
              37.9616051
            ],
            [
              58.3724969,
              37.9619588
            ],
            [
              58.372863,
              37.9617255
            ],
            [
              58.3734242,
              37.9622735
            ],
            [
              58.3735662,
              37.9624257
            ],
            [
              58.374018,
              37.9628992
            ],
            [
              58.3736597,
              37.9631318
            ],
            [
              58.3738238,
              37.9633126
            ],
            [
              58.3735544,
              37.9634842
            ],
            [
              58.3744566,
              37.9643402
            ],
            [
              58.3747036,
              37.96458
            ],
            [
              58.3754656,
              37.9653544
            ],
            [
              58.375761,
              37.9651726
            ],
            [
              58.3760249,
              37.9654403
            ],
            [
              58.3760253,
              37.9654401
            ],
            [
              58.3760614,
              37.965418
            ],
            [
              58.3760423,
              37.9653985
            ],
            [
              58.3761119,
              37.9653559
            ],
            [
              58.3761311,
              37.9653754
            ],
            [
              58.3761884,
              37.9653403
            ],
            [
              58.3762495,
              37.9654023
            ],
            [
              58.3762568,
              37.9653978
            ],
            [
              58.376321,
              37.965463
            ],
            [
              58.3763404,
              37.9654511
            ],
            [
              58.3763996,
              37.9655113
            ],
            [
              58.3763802,
              37.9655232
            ],
            [
              58.3764444,
              37.9655884
            ],
            [
              58.3764371,
              37.9655929
            ],
            [
              58.3764982,
              37.9656549
            ],
            [
              58.3764408,
              37.96569
            ],
            [
              58.37646,
              37.9657094
            ],
            [
              58.3763903,
              37.9657521
            ],
            [
              58.3763711,
              37.9657326
            ],
            [
              58.376335,
              37.9657547
            ],
            [
              58.3763344,
              37.9657551
            ],
            [
              58.3766628,
              37.9660907
            ],
            [
              58.3766647,
              37.9660896
            ],
            [
              58.3768116,
              37.9659995
            ],
            [
              58.3773083,
              37.9665028
            ],
            [
              58.3776014,
              37.9667998
            ],
            [
              58.3779881,
              37.9665627
            ],
            [
              58.3789154,
              37.9675022
            ],
            [
              58.3789007,
              37.9675112
            ],
            [
              58.3795736,
              37.9681953
            ],
            [
              58.380583,
              37.9675777
            ],
            [
              58.3800503,
              37.9670363
            ],
            [
              58.3807355,
              37.9666796
            ],
            [
              58.3813123,
              37.9663791
            ],
            [
              58.3823515,
              37.9658494
            ],
            [
              58.382877,
              37.9655766
            ],
            [
              58.3853447,
              37.9684757
            ],
            [
              58.3855172,
              37.9686831
            ],
            [
              58.3852717,
              37.9690926
            ],
            [
              58.3848882,
              37.9697375
            ],
            [
              58.3846285,
              37.9701228
            ],
            [
              58.3846107,
              37.9701493
            ],
            [
              58.3785737,
              37.9728686
            ],
            [
              58.3790793,
              37.9735819
            ],
            [
              58.3793317,
              37.9734707
            ],
            [
              58.3796965,
              37.9734073
            ],
            [
              58.3806412,
              37.9747401
            ],
            [
              58.3804094,
              37.9749389
            ],
            [
              58.3801289,
              37.9750624
            ],
            [
              58.3805814,
              37.9757008
            ],
            [
              58.3866648,
              37.9729874
            ],
            [
              58.3879306,
              37.9730872
            ],
            [
              58.3878638,
              37.9733304
            ],
            [
              58.387836,
              37.9734679
            ],
            [
              58.3878287,
              37.9736128
            ],
            [
              58.3878192,
              37.973748
            ],
            [
              58.3878327,
              37.97387
            ],
            [
              58.387848,
              37.9739843
            ],
            [
              58.3878695,
              37.974088
            ],
            [
              58.3879334,
              37.9742894
            ],
            [
              58.3786863,
              37.9784143
            ],
            [
              58.3777742,
              37.9771231
            ]
          ]
        ]
      },
      "id": "way/425942949"
    },
    {
      "type": "Feature",
      "properties": {
        "@id": "way/564419875",
        "aeroway": "aerodrome",
        "ele": "198",
        "email": "turkmenabat.airport@online.tm",
        "iata": "CRZ",
        "icao": "UTAV",
        "name": "Türkmenabatyň Halkara Howa Menzili",
        "name:en": "Turkmenabat International Airport",
        "name:ru": "Туркменабатский международный аэропорт",
        "name:tk": "Türkmenabatyň Halkara Howa Menzili",
        "operator": "Turkmenistan Civil Aviation Authority",
        "phone": "(+993-422) 94-600",
        "website": "https://tia.gov.tm/",
        "wikidata": "Q967711"
      },
      "geometry": {
        "type": "Polygon",
        "coordinates": [
          [
            [
              63.5376732,
              38.9477552
            ],
            [
              63.5400067,
              38.9435612
            ],
            [
              63.5481057,
              38.9381725
            ],
            [
              63.5489405,
              38.9380025
            ],
            [
              63.5507517,
              38.936782
            ],
            [
              63.5544303,
              38.9343535
            ],
            [
              63.5544276,
              38.9343149
            ],
            [
              63.5565151,
              38.9329243
            ],
            [
              63.5577723,
              38.9320918
            ],
            [
              63.564038,
              38.9279166
            ],
            [
              63.565139,
              38.9271936
            ],
            [
              63.5696505,
              38.9241711
            ],
            [
              63.5754105,
              38.9203544
            ],
            [
              63.5757565,
              38.9197367
            ],
            [
              63.5857531,
              38.9130857
            ],
            [
              63.5859758,
              38.9125984
            ],
            [
              63.58613,
              38.9123719
            ],
            [
              63.5864183,
              38.9120286
            ],
            [
              63.5867335,
              38.911751
            ],
            [
              63.5871828,
              38.9114494
            ],
            [
              63.5878627,
              38.9111572
            ],
            [
              63.5882221,
              38.9110529
            ],
            [
              63.5886513,
              38.9109684
            ],
            [
              63.5890496,
              38.9109339
            ],
            [
              63.5895793,
              38.9109308
            ],
            [
              63.5901909,
              38.9110028
            ],
            [
              63.5906455,
              38.9111113
            ],
            [
              63.5912248,
              38.9113263
            ],
            [
              63.5914636,
              38.9114557
            ],
            [
              63.5918887,
              38.9117385
            ],
            [
              63.5923152,
              38.91211
            ],
            [
              63.5926424,
              38.9125086
            ],
            [
              63.5927658,
              38.9127361
            ],
            [
              63.5929053,
              38.9130554
            ],
            [
              63.5929736,
              38.9133466
            ],
            [
              63.5930139,
              38.9137003
            ],
            [
              63.5929924,
              38.9141814
            ],
            [
              63.5929213,
              38.9144652
            ],
            [
              63.5927872,
              38.9148095
            ],
            [
              63.5926343,
              38.9150882
            ],
            [
              63.5924506,
              38.915348
            ],
            [
              63.5921502,
              38.9156621
            ],
            [
              63.5919745,
              38.915804
            ],
            [
              63.5917023,
              38.9159991
            ],
            [
              63.5914756,
              38.9161358
            ],
            [
              63.5912356,
              38.9162673
            ],
            [
              63.5909419,
              38.9163925
            ],
            [
              63.5906281,
              38.916501
            ],
            [
              63.59027,
              38.9165897
            ],
            [
              63.589979,
              38.9166356
            ],
            [
              63.5898033,
              38.9166461
            ],
            [
              63.5862507,
              38.918998
            ],
            [
              63.5799611,
              38.9232011
            ],
            [
              63.5821443,
              38.9251855
            ],
            [
              63.5802879,
              38.9264205
            ],
            [
              63.5809548,
              38.9270202
            ],
            [
              63.5773317,
              38.9294259
            ],
            [
              63.5789983,
              38.9309115
            ],
            [
              63.5806168,
              38.9323885
            ],
            [
              63.5803962,
              38.932537
            ],
            [
              63.5803032,
              38.9325996
            ],
            [
              63.5786985,
              38.9336801
            ],
            [
              63.5771741,
              38.9322889
            ],
            [
              63.5765706,
              38.9326895
            ],
            [
              63.5749586,
              38.931253
            ],
            [
              63.5732044,
              38.9324319
            ],
            [
              63.572043,
              38.9332112
            ],
            [
              63.5731347,
              38.9341907
            ],
            [
              63.5715964,
              38.9352235
            ],
            [
              63.5710895,
              38.934752
            ],
            [
              63.5706154,
              38.935067
            ],
            [
              63.5681793,
              38.9366568
            ],
            [
              63.5680465,
              38.93654
            ],
            [
              63.5678668,
              38.9366798
            ],
            [
              63.5680985,
              38.9368897
            ],
            [
              63.5678494,
              38.9370574
            ],
            [
              63.5678065,
              38.9373088
            ],
            [
              63.5675128,
              38.9372895
            ],
            [
              63.5672564,
              38.9374695
            ],
            [
              63.567244,
              38.9374601
            ],
            [
              63.5670313,
              38.9372681
            ],
            [
              63.5667041,
              38.9372399
            ],
            [
              63.5667162,
              38.9371002
            ],
            [
              63.5665351,
              38.9370981
            ],
            [
              63.5656433,
              38.9377041
            ],
            [
              63.5655896,
              38.9376572
            ],
            [
              63.5646342,
              38.9383107
            ],
            [
              63.5644457,
              38.9384479
            ],
            [
              63.5645201,
              38.9385214
            ],
            [
              63.5646978,
              38.9385178
            ],
            [
              63.5646817,
              38.9386628
            ],
            [
              63.5647991,
              38.9387624
            ],
            [
              63.5646716,
              38.9388558
            ],
            [
              63.5646576,
              38.9389961
            ],
            [
              63.5644729,
              38.9389857
            ],
            [
              63.5643458,
              38.9390769
            ],
            [
              63.5642693,
              38.9390055
            ],
            [
              63.5638998,
              38.9392532
            ],
            [
              63.5636645,
              38.939031
            ],
            [
              63.5635798,
              38.9390872
            ],
            [
              63.5635022,
              38.9391416
            ],
            [
              63.5620944,
              38.9400731
            ],
            [
              63.5620303,
              38.9401138
            ],
            [
              63.5588989,
              38.9372347
            ],
            [
              63.5558626,
              38.9392511
            ],
            [
              63.5558559,
              38.9392918
            ],
            [
              63.5552779,
              38.9396934
            ],
            [
              63.5548769,
              38.9399375
            ],
            [
              63.5479206,
              38.9445604
            ],
            [
              63.5445792,
              38.9458554
            ],
            [
              63.5444022,
              38.9459164
            ],
            [
              63.5409448,
              38.9472389
            ],
            [
              63.540161,
              38.9475518
            ],
            [
              63.5382298,
              38.9482726
            ],
            [
              63.5376732,
              38.9477552
            ]
          ]
        ]
      },
      "id": "way/564419875"
    },
    {
      "type": "Feature",
      "properties": {
        "@id": "way/664395933",
        "aeroway": "aerodrome",
        "icao": "UT52",
        "name": "Mary North Airport",
        "wikidata": "Q12693860"
      },
      "geometry": {
        "type": "Polygon",
        "coordinates": [
          [
            [
              61.8361776,
              37.6665799
            ],
            [
              61.835461,
              37.6684524
            ],
            [
              61.835182,
              37.6704057
            ],
            [
              61.8342808,
              37.673259
            ],
            [
              61.833165,
              37.6747196
            ],
            [
              61.8313411,
              37.6769275
            ],
            [
              61.8291095,
              37.678405
            ],
            [
              61.8297103,
              37.6829053
            ],
            [
              61.8258479,
              37.6827524
            ],
            [
              61.8258479,
              37.6791013
            ],
            [
              61.8248394,
              37.678422
            ],
            [
              61.8237451,
              37.6787956
            ],
            [
              61.8193677,
              37.6768086
            ],
            [
              61.819754,
              37.6756537
            ],
            [
              61.8206552,
              37.6736497
            ],
            [
              61.8218783,
              37.6731911
            ],
            [
              61.8234018,
              37.6723249
            ],
            [
              61.8233159,
              37.6709322
            ],
            [
              61.8230584,
              37.6664991
            ],
            [
              61.8233159,
              37.6636795
            ],
            [
              61.8223718,
              37.6636285
            ],
            [
              61.823037,
              37.6615901
            ],
            [
              61.8221787,
              37.6589402
            ],
            [
              61.8235949,
              37.6548292
            ],
            [
              61.8238095,
              37.6516523
            ],
            [
              61.8243888,
              37.6491549
            ],
            [
              61.8255904,
              37.6472011
            ],
            [
              61.8270281,
              37.6423758
            ],
            [
              61.8270925,
              37.6397082
            ],
            [
              61.8295172,
              37.6398781
            ],
            [
              61.8305472,
              37.645604
            ],
            [
              61.8329719,
              37.645604
            ],
            [
              61.833916,
              37.6469972
            ],
            [
              61.8338517,
              37.6479656
            ],
            [
              61.8350318,
              37.6481525
            ],
            [
              61.8352893,
              37.6493418
            ],
            [
              61.8343881,
              37.6503611
            ],
            [
              61.8346756,
              37.6514107
            ],
            [
              61.8350646,
              37.6528311
            ],
            [
              61.8375653,
              37.6525037
            ],
            [
              61.8376009,
              37.653197
            ],
            [
              61.8376609,
              37.6539078
            ],
            [
              61.8376943,
              37.6545399
            ],
            [
              61.8428793,
              37.6545879
            ],
            [
              61.8432754,
              37.6545916
            ],
            [
              61.8426964,
              37.6557104
            ],
            [
              61.841003,
              37.6578086
            ],
            [
              61.8397021,
              37.6589043
            ],
            [
              61.8381098,
              37.6601293
            ],
            [
              61.8375429,
              37.6617666
            ],
            [
              61.8371744,
              37.6637142
            ],
            [
              61.8368572,
              37.6649555
            ],
            [
              61.8361776,
              37.6665799
            ]
          ]
        ]
      },
      "id": "way/664395933"
    },
    {
      "type": "Feature",
      "properties": {
        "@id": "way/785369187",
        "aeroway": "aerodrome",
        "alt_name": "Yangadzha",
        "icao": "UT1F",
        "landuse": "military",
        "military": "airfield",
        "name": "Ýaňyajy",
        "name:tk": "Ýaňyajy",
        "wikidata": "Q11824445"
      },
      "geometry": {
        "type": "Polygon",
        "coordinates": [
          [
            [
              53.3064355,
              40.049595
            ],
            [
              53.332043,
              40.0256239
            ],
            [
              53.3434714,
              40.0319023
            ],
            [
              53.3162981,
              40.0556347
            ],
            [
              53.3064355,
              40.049595
            ]
          ]
        ]
      },
      "id": "way/785369187"
    },
    {
      "type": "Feature",
      "properties": {
        "@id": "way/996192570",
        "aeroway": "aerodrome",
        "ele": "86",
        "iata": "TAZ",
        "icao": "UTAT",
        "name": "Daşoguz Halkara Howa Menzili",
        "name:en": "Dashoguz International Airport",
        "name:ru": "Дашогузсий международный аэропорт",
        "name:tk": "Daşoguz Halkara Howa Menzili",
        "source": "ourairports.com;ground truth 29 May 2018",
        "wikidata": "Q1708745",
        "wikipedia": "ru:Дашогуз (аэропорт)"
      },
      "geometry": {
        "type": "Polygon",
        "coordinates": [
          [
            [
              59.7960989,
              41.7576364
            ],
            [
              59.815734,
              41.7575874
            ],
            [
              59.8163402,
              41.7577954
            ],
            [
              59.8170537,
              41.7577954
            ],
            [
              59.8523703,
              41.7576934
            ],
            [
              59.8530194,
              41.7574773
            ],
            [
              59.8639709,
              41.7574533
            ],
            [
              59.8697269,
              41.759232
            ],
            [
              59.8697296,
              41.7603144
            ],
            [
              59.8637858,
              41.7622091
            ],
            [
              59.8588183,
              41.7622171
            ],
            [
              59.858821,
              41.7628774
            ],
            [
              59.858298,
              41.7628734
            ],
            [
              59.858298,
              41.7622311
            ],
            [
              59.8523891,
              41.7622291
            ],
            [
              59.8523945,
              41.7628053
            ],
            [
              59.8517454,
              41.7628053
            ],
            [
              59.8517293,
              41.7622291
            ],
            [
              59.8433018,
              41.7622532
            ],
            [
              59.8433152,
              41.7660864
            ],
            [
              59.845638,
              41.7660824
            ],
            [
              59.8456514,
              41.7665665
            ],
            [
              59.8473787,
              41.7665625
            ],
            [
              59.8474002,
              41.768539
            ],
            [
              59.8436746,
              41.768557
            ],
            [
              59.8436666,
              41.7664265
            ],
            [
              59.8390914,
              41.7664365
            ],
            [
              59.8390907,
              41.7665445
            ],
            [
              59.8381163,
              41.7665436
            ],
            [
              59.8371005,
              41.7665385
            ],
            [
              59.8371166,
              41.7680269
            ],
            [
              59.8344773,
              41.7680389
            ],
            [
              59.8344666,
              41.7666285
            ],
            [
              59.8353571,
              41.7666245
            ],
            [
              59.8353651,
              41.7655962
            ],
            [
              59.8352967,
              41.7655937
            ],
            [
              59.8352994,
              41.7654977
            ],
            [
              59.8352766,
              41.7654962
            ],
            [
              59.8352762,
              41.7654372
            ],
            [
              59.8352719,
              41.7648255
            ],
            [
              59.8350102,
              41.7648279
            ],
            [
              59.8350119,
              41.7649359
            ],
            [
              59.8343494,
              41.7649416
            ],
            [
              59.8343492,
              41.7649263
            ],
            [
              59.8340365,
              41.7649211
            ],
            [
              59.8340359,
              41.764996
            ],
            [
              59.83358,
              41.7649938
            ],
            [
              59.8335797,
              41.765022
            ],
            [
              59.8326906,
              41.7650178
            ],
            [
              59.8326908,
              41.7649937
            ],
            [
              59.8323946,
              41.7649923
            ],
            [
              59.8324026,
              41.7650941
            ],
            [
              59.8320995,
              41.7650946
            ],
            [
              59.8317763,
              41.7650931
            ],
            [
              59.8317857,
              41.764742
            ],
            [
              59.8310602,
              41.76474
            ],
            [
              59.8310629,
              41.7645659
            ],
            [
              59.8283994,
              41.7645659
            ],
            [
              59.8284048,
              41.7640498
            ],
            [
              59.8189312,
              41.7640778
            ],
            [
              59.8189259,
              41.7623332
            ],
            [
              59.8127568,
              41.7623572
            ],
            [
              59.8106137,
              41.7623312
            ],
            [
              59.8090446,
              41.7622131
            ],
            [
              59.8025,
              41.761793
            ],
            [
              59.800137,
              41.7616149
            ],
            [
              59.7978236,
              41.7614649
            ],
            [
              59.7975191,
              41.761727
            ],
            [
              59.7971906,
              41.76193
            ],
            [
              59.7967373,
              41.7621361
            ],
            [
              59.7961995,
              41.7623072
            ],
            [
              59.7957247,
              41.7623952
            ],
            [
              59.7952634,
              41.7624192
            ],
            [
              59.7947967,
              41.7623952
            ],
            [
              59.794389,
              41.7623312
            ],
            [
              59.7939706,
              41.7622241
            ],
            [
              59.7936474,
              41.7621041
            ],
            [
              59.7932839,
              41.761921
            ],
            [
              59.7929353,
              41.761695
            ],
            [
              59.7925396,
              41.7613328
            ],
            [
              59.7922902,
              41.7610077
            ],
            [
              59.792136,
              41.7606986
            ],
            [
              59.7920367,
              41.7603925
            ],
            [
              59.7919938,
              41.7600593
            ],
            [
              59.7920139,
              41.7597362
            ],
            [
              59.7920743,
              41.7594501
            ],
            [
              59.7922499,
              41.7590399
            ],
            [
              59.7924283,
              41.7587748
            ],
            [
              59.7926979,
              41.7584857
            ],
            [
              59.7930479,
              41.7582076
            ],
            [
              59.7934744,
              41.7579365
            ],
            [
              59.793929,
              41.7577554
            ],
            [
              59.7942764,
              41.7576604
            ],
            [
              59.7948772,
              41.7575573
            ],
            [
              59.7953881,
              41.7575463
            ],
            [
              59.7957543,
              41.7575783
            ],
            [
              59.7960989,
              41.7576364
            ]
          ]
        ]
      },
      "id": "way/996192570"
    },
    {
      "type": "Feature",
      "properties": {
        "@id": "way/1059107365",
        "addr:city": "Kerki",
        "aeroway": "aerodrome",
        "ele": "243",
        "email": "umumybolum.kerki@sanly.tm",
        "iata": "KEA",
        "icao": "UTAE",
        "name": "Kerki Halkara Howa Menzili",
        "name:en": "Kerki International Airport",
        "name:ru": "Международный аэропорт Керки",
        "name:tk": "Kerki Halkara Howa Menzili",
        "note": "https://www.iata.org/en/publications/directories/code-search/?airport.search=Kerki",
        "phone": "(+993-444) 2-59-04;dispatch (+993-444) 2-59-11",
        "source": "https://en.trend.az/business/transport/3445538.html;https://turkmenistan.gov.tm/en/post/55348/kerki-airport-awarded-icao-code-and-international-certificate-conformity;https://turkmenistan.gov.tm/ru/post/59800/iz-kerki-v-ashhabad-i-dashoguz",
        "website": "https://tia.gov.tm/kerki/",
        "wikidata": "Q6393956"
      },
      "geometry": {
        "type": "Polygon",
        "coordinates": [
          [
            [
              65.1443563,
              37.8027543
            ],
            [
              65.143271,
              37.8029418
            ],
            [
              65.1430698,
              37.8029341
            ],
            [
              65.1420638,
              37.8097796
            ],
            [
              65.1408063,
              37.8136274
            ],
            [
              65.1403627,
              37.8138348
            ],
            [
              65.1379446,
              37.820585
            ],
            [
              65.1409005,
              37.8212068
            ],
            [
              65.1419215,
              37.8234528
            ],
            [
              65.1414528,
              37.8249655
            ],
            [
              65.1412784,
              37.8249417
            ],
            [
              65.1410702,
              37.8251181
            ],
            [
              65.1406122,
              37.8248507
            ],
            [
              65.1399615,
              37.8247618
            ],
            [
              65.1395914,
              37.825738
            ],
            [
              65.1364319,
              37.8249938
            ],
            [
              65.134036,
              37.8316212
            ],
            [
              65.1342677,
              37.8320953
            ],
            [
              65.1329525,
              37.8361056
            ],
            [
              65.1288145,
              37.8429199
            ],
            [
              65.1273922,
              37.8426094
            ],
            [
              65.1283011,
              37.8350717
            ],
            [
              65.1297769,
              37.8310325
            ],
            [
              65.1302244,
              37.8308108
            ],
            [
              65.132875,
              37.8232517
            ],
            [
              65.1301758,
              37.8216487
            ],
            [
              65.1304957,
              37.8205674
            ],
            [
              65.1337341,
              37.82048
            ],
            [
              65.1363738,
              37.8129541
            ],
            [
              65.1361712,
              37.8125717
            ],
            [
              65.1375779,
              37.8088574
            ],
            [
              65.1411508,
              37.8024961
            ],
            [
              65.1402632,
              37.801843
            ],
            [
              65.1397087,
              37.8009906
            ],
            [
              65.1395531,
              37.8000401
            ],
            [
              65.1398149,
              37.7991043
            ],
            [
              65.140463,
              37.7982942
            ],
            [
              65.1414205,
              37.7977058
            ],
            [
              65.1425738,
              37.7974091
            ],
            [
              65.1437861,
              37.7974391
            ],
            [
              65.1449136,
              37.7977924
            ],
            [
              65.1457568,
              37.7983639
            ],
            [
              65.1463327,
              37.7991145
            ],
            [
              65.1465841,
              37.7999695
            ],
            [
              65.1464859,
              37.8008438
            ],
            [
              65.1460479,
              37.8016505
            ],
            [
              65.1453137,
              37.8023091
            ],
            [
              65.1443563,
              37.8027543
            ]
          ]
        ]
      },
      "id": "way/1059107365"
    },
    {
      "type": "Feature",
      "properties": {
        "@id": "way/1329023639",
        "aeroway": "aerodrome",
        "ele": "-9.44",
        "iata": "BKN",
        "icao": "UTAN",
        "name": "Jebel Halkara Howa Menzili",
        "name:en": "Jebel International Airport",
        "name:ru": "Международный аэропорт Джебел",
        "name:tk": "Jebel Halkara Howa Menzili",
        "start_date": "2021-07-14",
        "wikidata": "Q110319429",
        "wikipedia": "ru:Джебел (аэропорт)"
      },
      "geometry": {
        "type": "Polygon",
        "coordinates": [
          [
            [
              54.2122507,
              39.6670941
            ],
            [
              54.2020368,
              39.6932197
            ],
            [
              54.1972303,
              39.6919648
            ],
            [
              54.1950416,
              39.6905118
            ],
            [
              54.1945266,
              39.6882331
            ],
            [
              54.1962003,
              39.6870773
            ],
            [
              54.1968078,
              39.6832294
            ],
            [
              54.1989017,
              39.6768828
            ],
            [
              54.2005555,
              39.6749034
            ],
            [
              54.204247,
              39.6695056
            ],
            [
              54.205277,
              39.6677341
            ],
            [
              54.2076158,
              39.668209
            ],
            [
              54.2103117,
              39.6679428
            ],
            [
              54.210813,
              39.6666977
            ],
            [
              54.2122507,
              39.6670941
            ]
          ]
        ]
      },
      "id": "way/1329023639"
    },
    {
      "type": "Feature",
      "properties": {
        "@id": "way/1527560974",
        "aeroway": "aerodrome",
        "barrier": "fence",
        "landuse": "military",
        "name": "Аэродром Охотнечий Клуб Туркменистан"
      },
      "geometry": {
        "type": "Polygon",
        "coordinates": [
          [
            [
              60.2785953,
              38.26409
            ],
            [
              60.2757938,
              38.2639836
            ],
            [
              60.2743853,
              38.2639291
            ],
            [
              60.2756377,
              38.2411471
            ],
            [
              60.2797979,
              38.24126
            ],
            [
              60.2785953,
              38.26409
            ]
          ]
        ]
      },
      "id": "way/1527560974"
    },
    {
      "type": "Feature",
      "properties": {
        "@id": "node/736510919",
        "aeroway": "aerodrome",
        "name": "Kizyl Atrek Northwest"
      },
      "geometry": {
        "type": "Point",
        "coordinates": [
          54.6803149,
          37.7491849
        ]
      },
      "id": "node/736510919"
    },
    {
      "type": "Feature",
      "properties": {
        "@id": "node/1042088793",
        "addr:city": "Garabogaz",
        "aeroway": "aerodrome",
        "name": "Garabogaz Howa Menzili",
        "name:en": "Garabogaz Airport",
        "name:tk": "Garabogaz Howa Menzili",
        "old_name": "Bekdash Airport",
        "source": "ourairports.com;local knowledge",
        "wikidata": "Q11824391"
      },
      "geometry": {
        "type": "Point",
        "coordinates": [
          52.6118898,
          41.5475543
        ]
      },
      "id": "node/1042088793"
    },
    {
      "type": "Feature",
      "properties": {
        "@id": "node/1042088795",
        "aeroway": "aerodrome",
        "airfield": "disused",
        "name": "Gyaurs (Gawers) Airfield",
        "name:ru": "Аэродром Гаверса",
        "name:tk": "Gäwers Howa Menzili",
        "source": "ourairports.com"
      },
      "geometry": {
        "type": "Point",
        "coordinates": [
          58.7879461,
          37.8547045
        ]
      },
      "id": "node/1042088795"
    },
    {
      "type": "Feature",
      "properties": {
        "@id": "node/1042088811",
        "addr:city": "Gyzylarbat",
        "aeroway": "aerodrome",
        "internet_access": "no",
        "name": "Gyzylarbat Howa Menzili",
        "name:en": "Gyzylarbat Airport",
        "name:ru": "Аэропорт г. Кызыларбат",
        "name:tk": "Gyzylarbat Howa Menzili",
        "old_name": "Serdar Howa Menzili",
        "old_name:1999": "Kizyl-Arvat Airport",
        "old_name:en": "Serdar Airport",
        "old_name:ru": "Аэропорт г. Сердар",
        "old_name:tk": "Serdar Howa Menzili",
        "source": "ourairports.com",
        "wikidata": "Q12693389"
      },
      "geometry": {
        "type": "Point",
        "coordinates": [
          56.3569984,
          38.9841995
        ]
      },
      "id": "node/1042088811"
    },
    {
      "type": "Feature",
      "properties": {
        "@id": "node/1042088812",
        "aeroway": "aerodrome",
        "name": "Gowurdak aerodromy",
        "name:en": "Gaurdak Airport",
        "name:fr": "Aérodrome Gaurdak",
        "name:ru": "Аэродром Говурдак",
        "ref:ourairports": "TM-UT56",
        "source": "ourairports.com",
        "wikidata": "Q11824403"
      },
      "geometry": {
        "type": "Point",
        "coordinates": [
          65.9618092,
          37.8110204
        ]
      },
      "id": "node/1042088812"
    },
    {
      "type": "Feature",
      "properties": {
        "@id": "node/1042090922",
        "addr:city": "Hazar",
        "aeroway": "aerodrome",
        "alt_name:en": "Hazar Airport",
        "alt_name:en_2": "Hazar East Airport",
        "icao": "UT1J",
        "name": "Çeleken Gündogar Howa Menzili",
        "name:en": "Cheleken East Airport",
        "name:tk": "Çeleken Gündogar Howa Menzili",
        "source": "ourairports.com",
        "wikidata": "Q11824417"
      },
      "geometry": {
        "type": "Point",
        "coordinates": [
          53.1982002,
          39.4104996
        ]
      },
      "id": "node/1042090922"
    },
    {
      "type": "Feature",
      "properties": {
        "@id": "node/1127131806",
        "aeroway": "aerodrome"
      },
      "geometry": {
        "type": "Point",
        "coordinates": [
          57.9038505,
          38.1292809
        ]
      },
      "id": "node/1127131806"
    }
  ]
}